"","name","iso","c","y","Region","var","latest","Circumstances","exante","expost"
"1","Argentina","ARG","ARG","2014","LATAM","Income",1,"Birth_Area","33.7419326743736","33.7418609350784"
"2","Argentina","ARG","ARG","2014","LATAM","Income",1,"Ethnicity","0.102093612398147","2.33657540025796"
"3","Argentina","ARG","ARG","2014","LATAM","Income",1,"Father_Edu","23.0750395340068","19.9918360768311"
"4","Argentina","ARG","ARG","2014","LATAM","Income",1,"Father_Occ","18.8247562441","19.019612096955"
"5","Argentina","ARG","ARG","2014","LATAM","Income",1,"Mother_Edu","21.7241743023309","21.6258259589757"
"6","Argentina","ARG","ARG","2014","LATAM","Income",1,"Sex","2.53200363279059","3.28428953190187"
"7","Armenia","ARM","ARM","2016","Asia + Oceania","Income",1,"Birth_Area","22.8868672146905","18.0446010089485"
"8","Armenia","ARM","ARM","2016","Asia + Oceania","Income",1,"Ethnicity","0","26.801936030815"
"9","Armenia","ARM","ARM","2016","Asia + Oceania","Income",1,"Father_Edu","21.1913074717163","16.1685078137514"
"10","Armenia","ARM","ARM","2016","Asia + Oceania","Income",1,"Father_Occ","14.9114565718119","5.63558458928766"
"11","Armenia","ARM","ARM","2016","Asia + Oceania","Income",1,"Mother_Edu","18.31827568501","16.0076998255916"
"12","Armenia","ARM","ARM","2016","Asia + Oceania","Income",1,"Mother_Occ","17.4312467453986","8.02760341316397"
"13","Armenia","ARM","ARM","2016","Asia + Oceania","Income",1,"Sex","6.06471661657159","9.31406731844198"
"14","Australia","AUS","AUS","2005","Asia + Oceania","Income",0,"Ethnicity","0","2.82745994734102"
"15","Australia","AUS","AUS","2005","Asia + Oceania","Income",0,"Father_Edu","24.6607892185863","22.7231797148017"
"16","Australia","AUS","AUS","2005","Asia + Oceania","Income",0,"Father_Occ","29.2540972042196","26.6517287189973"
"17","Australia","AUS","AUS","2005","Asia + Oceania","Income",0,"Mother_Edu","15.7391717849523","17.4255909061136"
"18","Australia","AUS","AUS","2005","Asia + Oceania","Income",0,"Mother_Occ","23.1885751206268","21.547591187031"
"19","Australia","AUS","AUS","2005","Asia + Oceania","Income",0,"Sex","8.90809837042053","8.82444952571547"
"20","Australia","AUS","AUS","2007","Asia + Oceania","Income",0,"Ethnicity","0","1.81566658727857"
"21","Australia","AUS","AUS","2007","Asia + Oceania","Income",0,"Father_Edu","23.0571629206689","19.6503065016206"
"22","Australia","AUS","AUS","2007","Asia + Oceania","Income",0,"Father_Occ","29.520443870047","29.9048884568904"
"23","Australia","AUS","AUS","2007","Asia + Oceania","Income",0,"Mother_Edu","11.1204728790247","18.5079218801293"
"24","Australia","AUS","AUS","2007","Asia + Oceania","Income",0,"Mother_Occ","26.3179172735083","19.2336721102532"
"25","Australia","AUS","AUS","2007","Asia + Oceania","Income",0,"Sex","11.3242700260771","10.8875444638279"
"26","Australia","AUS","AUS","2009","Asia + Oceania","Income",0,"Ethnicity","0","4.14900668456028"
"27","Australia","AUS","AUS","2009","Asia + Oceania","Income",0,"Father_Edu","30.69717924425","26.9070528257372"
"28","Australia","AUS","AUS","2009","Asia + Oceania","Income",0,"Father_Occ","27.5284523698441","19.6932370379271"
"29","Australia","AUS","AUS","2009","Asia + Oceania","Income",0,"Mother_Edu","9.71919063187299","19.120245559873"
"30","Australia","AUS","AUS","2009","Asia + Oceania","Income",0,"Mother_Occ","22.648274081989","16.0789830994316"
"31","Australia","AUS","AUS","2009","Asia + Oceania","Income",0,"Sex","10.5156086163494","14.0514747924707"
"32","Australia","AUS","AUS","2011","Asia + Oceania","Income",0,"Ethnicity","0","1.69433715782513"
"33","Australia","AUS","AUS","2011","Asia + Oceania","Income",0,"Father_Edu","24.3470771352717","24.7352465158336"
"34","Australia","AUS","AUS","2011","Asia + Oceania","Income",0,"Father_Occ","25.2266333443553","21.397013655703"
"35","Australia","AUS","AUS","2011","Asia + Oceania","Income",0,"Mother_Edu","16.3525394491368","22.3061494133555"
"36","Australia","AUS","AUS","2011","Asia + Oceania","Income",0,"Mother_Occ","25.9020068620445","23.1158484475149"
"37","Australia","AUS","AUS","2011","Asia + Oceania","Income",0,"Sex","9.08049436332058","6.75140480976781"
"38","Australia","AUS","AUS","2013","Asia + Oceania","Income",0,"Ethnicity","0.291039199506063","7.96661545757817"
"39","Australia","AUS","AUS","2013","Asia + Oceania","Income",0,"Father_Edu","24.3492748720048","21.8543661207346"
"40","Australia","AUS","AUS","2013","Asia + Oceania","Income",0,"Father_Occ","25.4642112101945","18.3567103981619"
"41","Australia","AUS","AUS","2013","Asia + Oceania","Income",0,"Mother_Edu","16.0743567370034","22.7361280676017"
"42","Australia","AUS","AUS","2013","Asia + Oceania","Income",0,"Mother_Occ","23.8614902240468","20.531723200434"
"43","Australia","AUS","AUS","2013","Asia + Oceania","Income",0,"Sex","9.9596277572445","8.55445675548955"
"44","Australia","AUS","AUS","2015","Asia + Oceania","Income",0,"Ethnicity","0","5.43205483323555"
"45","Australia","AUS","AUS","2015","Asia + Oceania","Income",0,"Father_Edu","24.6953913484611","22.8088218735804"
"46","Australia","AUS","AUS","2015","Asia + Oceania","Income",0,"Father_Occ","25.7773874481561","23.4329669754377"
"47","Australia","AUS","AUS","2015","Asia + Oceania","Income",0,"Mother_Edu","14.2674579238648","13.631051853088"
"48","Australia","AUS","AUS","2015","Asia + Oceania","Income",0,"Mother_Occ","26.0439661973564","23.9436311496845"
"49","Australia","AUS","AUS","2015","Asia + Oceania","Income",0,"Sex","9.5004026440493","10.7514733149738"
"50","Australia","AUS","AUS","2017","Asia + Oceania","Income",0,"Ethnicity","0","7.64231004830005"
"51","Australia","AUS","AUS","2017","Asia + Oceania","Income",0,"Father_Edu","22.9882637978491","20.4706555551261"
"52","Australia","AUS","AUS","2017","Asia + Oceania","Income",0,"Father_Occ","28.8143438142356","25.1244717484542"
"53","Australia","AUS","AUS","2017","Asia + Oceania","Income",0,"Mother_Edu","14.5945041866116","15.601010205006"
"54","Australia","AUS","AUS","2017","Asia + Oceania","Income",0,"Mother_Occ","24.459799472091","22.1433315202643"
"55","Australia","AUS","AUS","2017","Asia + Oceania","Income",0,"Sex","9.36905097603809","9.01822092284918"
"56","Australia","AUS","AUS","2019","Asia + Oceania","Income",1,"Ethnicity","0","7.08674515455633"
"57","Australia","AUS","AUS","2019","Asia + Oceania","Income",1,"Father_Edu","21.724956738478","21.8742806766558"
"58","Australia","AUS","AUS","2019","Asia + Oceania","Income",1,"Father_Occ","29.7961081098927","24.8500601109353"
"59","Australia","AUS","AUS","2019","Asia + Oceania","Income",1,"Mother_Edu","15.6854136745939","16.705821659223"
"60","Australia","AUS","AUS","2019","Asia + Oceania","Income",1,"Mother_Occ","19.0576070558015","20.7909925492646"
"61","Australia","AUS","AUS","2019","Asia + Oceania","Income",1,"Sex","13.9163941959277","8.69209984936505"
"62","Austria","AUT","AT","2005","Europe","Income",0,"Birth_Area","13.8721204189295","12.9961147324646"
"63","Austria","AUT","AT","2005","Europe","Income",0,"Father_Edu","15.2396643273966","15.7490286831161"
"64","Austria","AUT","AT","2005","Europe","Income",0,"Father_Occ","21.6017164233089","20.1536910041586"
"65","Austria","AUT","AT","2005","Europe","Income",0,"Mother_Edu","14.8383199194769","15.6572648847611"
"66","Austria","AUT","AT","2005","Europe","Income",0,"Mother_Occ","29.1380725275788","29.9877113945416"
"67","Austria","AUT","AT","2005","Europe","Income",0,"Sex","5.31010638330922","5.45618930095791"
"68","Austria","AUT","AT","2011","Europe","Income",0,"Birth_Area","26.1911575245964","30.2388458345063"
"69","Austria","AUT","AT","2011","Europe","Income",0,"Father_Edu","14.2932498509366","14.899366471613"
"70","Austria","AUT","AT","2011","Europe","Income",0,"Father_Occ","23.2937395937052","20.6302234147968"
"71","Austria","AUT","AT","2011","Europe","Income",0,"Mother_Edu","19.5332610025484","17.541737637033"
"72","Austria","AUT","AT","2011","Europe","Income",0,"Mother_Occ","13.7538369382707","12.4114195950811"
"73","Austria","AUT","AT","2011","Europe","Income",0,"Sex","2.93475508994273","4.27840704696987"
"74","Austria","AUT","AT","2019","Europe","Income",1,"Birth_Area","24.0107286023879","28.5688468778127"
"75","Austria","AUT","AT","2019","Europe","Income",1,"Father_Edu","13.8347313445897","12.4061410114666"
"76","Austria","AUT","AT","2019","Europe","Income",1,"Father_Occ","20.3386976345273","14.7865770536958"
"77","Austria","AUT","AT","2019","Europe","Income",1,"Mother_Edu","19.1463038147054","17.8493036812773"
"78","Austria","AUT","AT","2019","Europe","Income",1,"Mother_Occ","19.6612011459921","17.0305549788546"
"79","Austria","AUT","AT","2019","Europe","Income",1,"Sex","3.00833745779759","9.35857639689293"
"80","Belgium","BEL","BE","2005","Europe","Income",0,"Birth_Area","5.53865660232267","7.43462089696561"
"81","Belgium","BEL","BE","2005","Europe","Income",0,"Father_Edu","22.2369304221595","23.25505315299"
"82","Belgium","BEL","BE","2005","Europe","Income",0,"Father_Occ","22.4121746751412","23.3519411895536"
"83","Belgium","BEL","BE","2005","Europe","Income",0,"Mother_Edu","21.3356742639674","19.6840369482181"
"84","Belgium","BEL","BE","2005","Europe","Income",0,"Mother_Occ","22.9754597740113","18.9366149518705"
"85","Belgium","BEL","BE","2005","Europe","Income",0,"Sex","5.501104262398","7.33773286040202"
"86","Belgium","BEL","BE","2011","Europe","Income",0,"Birth_Area","15.0174841680578","18.1957781795956"
"87","Belgium","BEL","BE","2011","Europe","Income",0,"Father_Edu","23.3451743056613","16.6169394629942"
"88","Belgium","BEL","BE","2011","Europe","Income",0,"Father_Occ","29.34220157333","12.5144451600142"
"89","Belgium","BEL","BE","2011","Europe","Income",0,"Mother_Edu","21.1235482951386","16.1569628290237"
"90","Belgium","BEL","BE","2011","Europe","Income",0,"Mother_Occ","8.80238318156482","23.6036115789783"
"91","Belgium","BEL","BE","2011","Europe","Income",0,"Sex","2.36920847624748","12.9122627893941"
"92","Belgium","BEL","BE","2019","Europe","Income",1,"Birth_Area","18.8929794510399","20.7869634847895"
"93","Belgium","BEL","BE","2019","Europe","Income",1,"Father_Edu","19.3353877607552","18.2770643667076"
"94","Belgium","BEL","BE","2019","Europe","Income",1,"Father_Occ","20.3629167381582","17.537151909932"
"95","Belgium","BEL","BE","2019","Europe","Income",1,"Mother_Edu","19.3211165249579","20.1921319018914"
"96","Belgium","BEL","BE","2019","Europe","Income",1,"Mother_Occ","18.1080614821904","19.2345981342995"
"97","Belgium","BEL","BE","2019","Europe","Income",1,"Sex","3.97953804289847","3.97209020237985"
"98","Benin","BEN","BEN","2018","Africa","Consumption",1,"Ethnicity","27.40894286923","24.7123066500367"
"99","Benin","BEN","BEN","2018","Africa","Consumption",1,"Father_Edu","30.6568746697914","29.2894306242049"
"100","Benin","BEN","BEN","2018","Africa","Consumption",1,"Father_Occ","14.2680173863934","15.1958402577013"
"101","Benin","BEN","BEN","2018","Africa","Consumption",1,"Mother_Edu","15.0828695342374","15.3495086884888"
"102","Benin","BEN","BEN","2018","Africa","Consumption",1,"Mother_Occ","8.28860937193241","9.55401358450599"
"103","Benin","BEN","BEN","2018","Africa","Consumption",1,"Sex","4.29468616841524","5.89890019506227"
"104","Burkina Faso","BFA","BFA","2018","Africa","Consumption",1,"Ethnicity","25.6645595134626","24.0661498489234"
"105","Burkina Faso","BFA","BFA","2018","Africa","Consumption",1,"Father_Edu","17.3548907654301","17.1879609808766"
"106","Burkina Faso","BFA","BFA","2018","Africa","Consumption",1,"Father_Occ","17.7372374869653","17.7526964879373"
"107","Burkina Faso","BFA","BFA","2018","Africa","Consumption",1,"Mother_Edu","12.3079140411649","11.0772331865275"
"108","Burkina Faso","BFA","BFA","2018","Africa","Consumption",1,"Mother_Occ","21.8538371888281","21.1411095303014"
"109","Burkina Faso","BFA","BFA","2018","Africa","Consumption",1,"Sex","5.08156100414894","8.77484996543386"
"110","Bulgaria","BGR","BG","2011","Europe","Income",0,"Birth_Area","0","0"
"111","Bulgaria","BGR","BG","2011","Europe","Income",0,"Father_Edu","21.9327777224703","24.5003342256934"
"112","Bulgaria","BGR","BG","2011","Europe","Income",0,"Father_Occ","25.3030887981847","23.1997253078473"
"113","Bulgaria","BGR","BG","2011","Europe","Income",0,"Mother_Edu","24.2799586501999","26.53128507433"
"114","Bulgaria","BGR","BG","2011","Europe","Income",0,"Mother_Occ","27.1788274028233","24.7304419573123"
"115","Bulgaria","BGR","BG","2011","Europe","Income",0,"Sex","1.95164777359249","1.51957511575161"
"116","Bulgaria","BGR","BG","2019","Europe","Income",1,"Birth_Area","0","0"
"117","Bulgaria","BGR","BG","2019","Europe","Income",1,"Father_Edu","22.6918744385602","20.7448540555681"
"118","Bulgaria","BGR","BG","2019","Europe","Income",1,"Father_Occ","26.8147491022211","26.8581602974105"
"119","Bulgaria","BGR","BG","2019","Europe","Income",1,"Mother_Edu","22.5673580896577","23.4874946972269"
"120","Bulgaria","BGR","BG","2019","Europe","Income",1,"Mother_Occ","26.6003042791112","25.5305632331872"
"121","Bulgaria","BGR","BG","2019","Europe","Income",1,"Sex","2.03599567062202","3.98692225088166"
"122","Bolivia","BOL","BOL","2008","LATAM","Income",1,"Ethnicity","15.815716687425","14.6318986285012"
"123","Bolivia","BOL","BOL","2008","LATAM","Income",1,"Father_Edu","15.9959842971316","17.5863211703676"
"124","Bolivia","BOL","BOL","2008","LATAM","Income",1,"Father_Occ","17.0881939324122","18.4399263991572"
"125","Bolivia","BOL","BOL","2008","LATAM","Income",1,"Mother_Edu","16.6534308737083","18.6438432038125"
"126","Bolivia","BOL","BOL","2008","LATAM","Income",1,"Mother_Occ","17.5282589796369","18.3972461377177"
"127","Bolivia","BOL","BOL","2008","LATAM","Income",1,"Sex","1.89799682037793","1.40101758226176"
"128","Brazil","BRA","BRA","2014","LATAM","Income",1,"Birth_Area","12.8106854453795","12.2328162517338"
"129","Brazil","BRA","BRA","2014","LATAM","Income",1,"Ethnicity","9.48219881091892","9.08577507204415"
"130","Brazil","BRA","BRA","2014","LATAM","Income",1,"Father_Edu","22.0920424068563","19.7836548268977"
"131","Brazil","BRA","BRA","2014","LATAM","Income",1,"Father_Occ","19.231316468067","18.5629530927136"
"132","Brazil","BRA","BRA","2014","LATAM","Income",1,"Mother_Edu","21.1417496251242","19.8300105889553"
"133","Brazil","BRA","BRA","2014","LATAM","Income",1,"Mother_Occ","14.0613298317006","17.4967705653883"
"134","Brazil","BRA","BRA","2014","LATAM","Income",1,"Sex","1.18067741195347","3.00801960226699"
"135","Switzerland","CHE","CH","2011","Europe","Income",0,"Birth_Area","10.4170638387262","16.8050341937082"
"136","Switzerland","CHE","CH","2011","Europe","Income",0,"Father_Edu","21.1327401492785","16.8915138981091"
"137","Switzerland","CHE","CH","2011","Europe","Income",0,"Father_Occ","28.6873644494107","23.0661647923343"
"138","Switzerland","CHE","CH","2011","Europe","Income",0,"Mother_Edu","18.203691956137","17.548759651556"
"139","Switzerland","CHE","CH","2011","Europe","Income",0,"Mother_Occ","15.8401530676119","16.4072275534639"
"140","Switzerland","CHE","CH","2011","Europe","Income",0,"Sex","5.71898653883583","9.28129991082858"
"141","Switzerland","CHE","CH","2019","Europe","Income",1,"Birth_Area","17.1574889570063","15.6289849589477"
"142","Switzerland","CHE","CH","2019","Europe","Income",1,"Father_Edu","29.6012776120867","24.6823818871627"
"143","Switzerland","CHE","CH","2019","Europe","Income",1,"Father_Occ","6.37383451925088","11.7038411080106"
"144","Switzerland","CHE","CH","2019","Europe","Income",1,"Mother_Edu","28.0277590930569","19.6142842712018"
"145","Switzerland","CHE","CH","2019","Europe","Income",1,"Mother_Occ","10.0838735962296","16.39596709074"
"146","Switzerland","CHE","CH","2019","Europe","Income",1,"Sex","8.75576622236956","11.9745406839373"
"147","Chile","CHL","CHL","2006","LATAM","Income",0,"Birth_Area","17.385154702739","17.966049743099"
"148","Chile","CHL","CHL","2006","LATAM","Income",0,"Ethnicity","1.96972952004921","10.5310214930828"
"149","Chile","CHL","CHL","2006","LATAM","Income",0,"Father_Edu","39.03364134983","35.4568824845165"
"150","Chile","CHL","CHL","2006","LATAM","Income",0,"Mother_Edu","36.9356840764462","30.0728965103668"
"151","Chile","CHL","CHL","2006","LATAM","Income",0,"Sex","4.67579035093558","5.97314976893494"
"152","Chile","CHL","CHL","2011","LATAM","Income",0,"Birth_Area","13.5376356842636","20.8383662759088"
"153","Chile","CHL","CHL","2011","LATAM","Income",0,"Ethnicity","1.97163178294563","14.4205278879173"
"154","Chile","CHL","CHL","2011","LATAM","Income",0,"Father_Edu","39.4488531622164","29.5400300362036"
"155","Chile","CHL","CHL","2011","LATAM","Income",0,"Mother_Edu","38.4663042871043","29.0485739434295"
"156","Chile","CHL","CHL","2011","LATAM","Income",0,"Sex","6.57557508347025","6.15250185654079"
"157","Chile","CHL","CHL","2013","LATAM","Income",0,"Birth_Area","14.4386001963596","19.4806609703249"
"158","Chile","CHL","CHL","2013","LATAM","Income",0,"Ethnicity","1.96525917334849","15.0510045407432"
"159","Chile","CHL","CHL","2013","LATAM","Income",0,"Father_Edu","37.8519164428628","30.2340338200681"
"160","Chile","CHL","CHL","2013","LATAM","Income",0,"Mother_Edu","37.439087189146","29.1953557607179"
"161","Chile","CHL","CHL","2013","LATAM","Income",0,"Sex","8.30513699828319","6.0389449081459"
"162","Chile","CHL","CHL","2015","LATAM","Income",1,"Birth_Area","14.5796747461358","22.0853563982044"
"163","Chile","CHL","CHL","2015","LATAM","Income",1,"Ethnicity","2.43867693148289","13.3233547250768"
"164","Chile","CHL","CHL","2015","LATAM","Income",1,"Father_Edu","37.8665066201422","28.9197177032439"
"165","Chile","CHL","CHL","2015","LATAM","Income",1,"Mother_Edu","37.136719866256","27.2841440575934"
"166","Chile","CHL","CHL","2015","LATAM","Income",1,"Sex","7.978421835983","8.38742711588156"
"167","China","CHN","CHI","2010","Asia + Oceania","Income",0,"Birth_Area","39.0663087163897","25.225800327651"
"168","China","CHN","CHI","2010","Asia + Oceania","Income",0,"Ethnicity","4.20811506347774","3.0661339676702"
"169","China","CHN","CHI","2010","Asia + Oceania","Income",0,"Father_Edu","10.8424164361287","16.320134046223"
"170","China","CHN","CHI","2010","Asia + Oceania","Income",0,"Father_Occ","17.4105732287932","12.2504651653358"
"171","China","CHN","CHI","2010","Asia + Oceania","Income",0,"Mother_Edu","9.32770555443673","11.8498843482442"
"172","China","CHN","CHI","2010","Asia + Oceania","Income",0,"Mother_Occ","16.8681876729034","16.9761577031991"
"173","China","CHN","CHI","2010","Asia + Oceania","Income",0,"Sex","2.27669332787048","14.3114244416767"
"174","China","CHN","CHI","2012","Asia + Oceania","Income",0,"Birth_Area","35.9811741133407","11.3281919533449"
"175","China","CHN","CHI","2012","Asia + Oceania","Income",0,"Ethnicity","0","12.1528994120331"
"176","China","CHN","CHI","2012","Asia + Oceania","Income",0,"Father_Edu","10.0755078410791","14.6320200151202"
"177","China","CHN","CHI","2012","Asia + Oceania","Income",0,"Father_Occ","21.0218828838044","20.9597754254189"
"178","China","CHN","CHI","2012","Asia + Oceania","Income",0,"Mother_Edu","11.0660019633526","16.1264898948037"
"179","China","CHN","CHI","2012","Asia + Oceania","Income",0,"Mother_Occ","18.7861961506729","20.8448162039047"
"180","China","CHN","CHI","2012","Asia + Oceania","Income",0,"Sex","3.32882787679342","3.95580709537449"
"181","China","CHN","CHI","2014","Asia + Oceania","Income",0,"Birth_Area","51.7578154480204","33.1630389993528"
"182","China","CHN","CHI","2014","Asia + Oceania","Income",0,"Ethnicity","4.29520230314999","4.49030831522653"
"183","China","CHN","CHI","2014","Asia + Oceania","Income",0,"Father_Edu","4.90601352904917","16.2903555075815"
"184","China","CHN","CHI","2014","Asia + Oceania","Income",0,"Father_Occ","15.2984073443479","15.7548102754961"
"185","China","CHN","CHI","2014","Asia + Oceania","Income",0,"Mother_Edu","4.52748262849193","11.6389345592438"
"186","China","CHN","CHI","2014","Asia + Oceania","Income",0,"Mother_Occ","16.3049554208297","11.9277679428404"
"187","China","CHN","CHI","2014","Asia + Oceania","Income",0,"Sex","2.91012332611099","6.73478440025885"
"188","China","CHN","CHI","2016","Asia + Oceania","Income",0,"Birth_Area","60.2065238276554","13.5627567653714"
"189","China","CHN","CHI","2016","Asia + Oceania","Income",0,"Ethnicity","6.19595890687805","9.00969440871375"
"190","China","CHN","CHI","2016","Asia + Oceania","Income",0,"Father_Edu","3.10506180458682","12.22823848842"
"191","China","CHN","CHI","2016","Asia + Oceania","Income",0,"Father_Occ","15.1099535129919","18.5606585476796"
"192","China","CHN","CHI","2016","Asia + Oceania","Income",0,"Mother_Edu","1.54053364169868","18.8955964681693"
"193","China","CHN","CHI","2016","Asia + Oceania","Income",0,"Mother_Occ","9.33264707735135","23.4695924448576"
"194","China","CHN","CHI","2016","Asia + Oceania","Income",0,"Sex","4.50932122883764","4.27346287678826"
"195","China","CHN","CHI","2018","Asia + Oceania","Income",1,"Birth_Area","48.5665985319968","15.4117573951461"
"196","China","CHN","CHI","2018","Asia + Oceania","Income",1,"Ethnicity","12.4811591764446","8.64906879931532"
"197","China","CHN","CHI","2018","Asia + Oceania","Income",1,"Father_Edu","4.3285718156333","10.4607041802284"
"198","China","CHN","CHI","2018","Asia + Oceania","Income",1,"Father_Occ","16.3196140035365","16.3175750856026"
"199","China","CHN","CHI","2018","Asia + Oceania","Income",1,"Mother_Edu","2.82225907797935","17.262776153905"
"200","China","CHN","CHI","2018","Asia + Oceania","Income",1,"Mother_Occ","12.6397184119872","29.5335114513316"
"201","China","CHN","CHI","2018","Asia + Oceania","Income",1,"Sex","2.84207898242217","2.36460693447099"
"202","Ivory Coast","CIV","CIV","2018","Africa","Consumption",1,"Ethnicity","22.3560321744228","17.9735021431156"
"203","Ivory Coast","CIV","CIV","2018","Africa","Consumption",1,"Father_Edu","24.1370509420681","25.7434913346104"
"204","Ivory Coast","CIV","CIV","2018","Africa","Consumption",1,"Father_Occ","22.6033958921513","25.8287197352484"
"205","Ivory Coast","CIV","CIV","2018","Africa","Consumption",1,"Mother_Edu","13.5375156374008","15.7859731934077"
"206","Ivory Coast","CIV","CIV","2018","Africa","Consumption",1,"Mother_Occ","14.4527613929964","11.4535294943109"
"207","Ivory Coast","CIV","CIV","2018","Africa","Consumption",1,"Sex","2.91324396096071","3.21478409930715"
"208","Colombia","COL","COL","2010","LATAM","Income",1,"Ethnicity","3.38758264479656","10.1640769639973"
"209","Colombia","COL","COL","2010","LATAM","Income",1,"Father_Edu","29.4474960548686","32.0160763205348"
"210","Colombia","COL","COL","2010","LATAM","Income",1,"Mother_Edu","37.2841287271098","37.3402932538253"
"211","Colombia","COL","COL","2010","LATAM","Income",1,"Sex","3.32538714739782","5.04172607557104"
"212","Colombia","COL","COL","2010","LATAM","Income",1,"Birth_Area","26.5554054258272","15.4378273860716"
"213","Cyprus","CYP","CY","2005","Europe","Income",0,"Birth_Area","8.70323357165151","9.94760094256129"
"214","Cyprus","CYP","CY","2005","Europe","Income",0,"Father_Edu","23.0576306032867","21.2418199722253"
"215","Cyprus","CYP","CY","2005","Europe","Income",0,"Father_Occ","22.1590767984895","20.0704039084832"
"216","Cyprus","CYP","CY","2005","Europe","Income",0,"Mother_Edu","22.5521940880883","20.8550316492916"
"217","Cyprus","CYP","CY","2005","Europe","Income",0,"Mother_Occ","20.2608818858554","21.7943747192734"
"218","Cyprus","CYP","CY","2005","Europe","Income",0,"Sex","3.26698305262851","6.09076880816527"
"219","Cyprus","CYP","CY","2011","Europe","Income",0,"Birth_Area","19.9601032259837","22.6517592363866"
"220","Cyprus","CYP","CY","2011","Europe","Income",0,"Father_Edu","18.5237586472507","16.3803638330354"
"221","Cyprus","CYP","CY","2011","Europe","Income",0,"Father_Occ","25.2992426701626","17.2392723339292"
"222","Cyprus","CYP","CY","2011","Europe","Income",0,"Mother_Edu","18.0014515277115","15.0715508792926"
"223","Cyprus","CYP","CY","2011","Europe","Income",0,"Mother_Occ","15.9702571739476","16.4076307695717"
"224","Cyprus","CYP","CY","2011","Europe","Income",0,"Sex","2.24518675494399","12.2494229477846"
"225","Cyprus","CYP","CY","2019","Europe","Income",1,"Birth_Area","13.2818049053215","15.5718273812285"
"226","Cyprus","CYP","CY","2019","Europe","Income",1,"Father_Edu","19.5336260820137","20.9264195167326"
"227","Cyprus","CYP","CY","2019","Europe","Income",1,"Father_Occ","23.1589425040008","19.196757452343"
"228","Cyprus","CYP","CY","2019","Europe","Income",1,"Mother_Edu","19.7555842302986","17.375092086656"
"229","Cyprus","CYP","CY","2019","Europe","Income",1,"Mother_Occ","22.5670541085743","20.7608135743974"
"230","Cyprus","CYP","CY","2019","Europe","Income",1,"Sex","1.70298816979114","6.16908998864237"
"231","Czech Rep.","CZE","CZ","2005","Europe","Income",0,"Birth_Area","1.54758531754265","2.5066301187178"
"232","Czech Rep.","CZE","CZ","2005","Europe","Income",0,"Father_Edu","17.2966283895468","19.05430748974"
"233","Czech Rep.","CZE","CZ","2005","Europe","Income",0,"Father_Occ","27.2588137746285","25.8027089827321"
"234","Czech Rep.","CZE","CZ","2005","Europe","Income",0,"Mother_Edu","12.3741367875065","12.4551335481901"
"235","Czech Rep.","CZE","CZ","2005","Europe","Income",0,"Mother_Occ","34.6718517229394","31.4733559375313"
"236","Czech Rep.","CZE","CZ","2005","Europe","Income",0,"Sex","6.85098400783616","8.70786392308885"
"237","Czech Rep.","CZE","CZ","2011","Europe","Income",0,"Birth_Area","0.634297961736801","0.923360281850852"
"238","Czech Rep.","CZE","CZ","2011","Europe","Income",0,"Father_Edu","19.7545113465062","19.9189023277405"
"239","Czech Rep.","CZE","CZ","2011","Europe","Income",0,"Father_Occ","22.9121378270202","21.3482288284672"
"240","Czech Rep.","CZE","CZ","2011","Europe","Income",0,"Mother_Edu","19.7719567966748","21.0996503066017"
"241","Czech Rep.","CZE","CZ","2011","Europe","Income",0,"Mother_Occ","32.8560444231138","29.1163076367645"
"242","Czech Rep.","CZE","CZ","2011","Europe","Income",0,"Sex","4.0710516449481","7.59355061857545"
"243","Czech Rep.","CZE","CZ","2019","Europe","Income",1,"Birth_Area","0.30037309072022","0.442115678413255"
"244","Czech Rep.","CZE","CZ","2019","Europe","Income",1,"Father_Edu","23.5317226968455","23.807055854651"
"245","Czech Rep.","CZE","CZ","2019","Europe","Income",1,"Father_Occ","21.3532115832688","20.4550398191806"
"246","Czech Rep.","CZE","CZ","2019","Europe","Income",1,"Mother_Edu","20.0717344576354","21.3079196388565"
"247","Czech Rep.","CZE","CZ","2019","Europe","Income",1,"Mother_Occ","27.0649382003776","24.5805980166827"
"248","Czech Rep.","CZE","CZ","2019","Europe","Income",1,"Sex","7.67801997115245","9.40727099221587"
"249","Germany","DEU","DE","2005","Europe","Income",0,"Birth_Area","5.84426804066502","6.69503302978921"
"250","Germany","DEU","DE","2005","Europe","Income",0,"Father_Edu","28.5120780981112","31.8496063248268"
"251","Germany","DEU","DE","2005","Europe","Income",0,"Father_Occ","23.7308393021463","18.7612108175284"
"252","Germany","DEU","DE","2005","Europe","Income",0,"Mother_Edu","18.551163939851","21.0561898153624"
"253","Germany","DEU","DE","2005","Europe","Income",0,"Mother_Occ","15.6974966404576","13.990861459585"
"254","Germany","DEU","DE","2005","Europe","Income",0,"Sex","7.66415397876881","7.64709855290814"
"255","Germany","DEU","DE","2011","Europe","Income",0,"Birth_Area","6.64121037078692","15.7436260047181"
"256","Germany","DEU","DE","2011","Europe","Income",0,"Father_Edu","18.9133862594009","18.3589078802391"
"257","Germany","DEU","DE","2011","Europe","Income",0,"Father_Occ","33.9833639050045","25.5674159068854"
"258","Germany","DEU","DE","2011","Europe","Income",0,"Mother_Edu","13.1270235347176","12.5569380051336"
"259","Germany","DEU","DE","2011","Europe","Income",0,"Mother_Occ","20.6302191557354","19.3478800180412"
"260","Germany","DEU","DE","2011","Europe","Income",0,"Sex","6.70479677435487","8.42523218498271"
"261","Germany","DEU","DE","2019","Europe","Income",1,"Birth_Area","7.28311851020411","12.9108635667052"
"262","Germany","DEU","DE","2019","Europe","Income",1,"Father_Edu","19.887884690527","19.1705353999743"
"263","Germany","DEU","DE","2019","Europe","Income",1,"Father_Occ","32.9439326229848","29.3077261744074"
"264","Germany","DEU","DE","2019","Europe","Income",1,"Mother_Edu","16.339876432362","16.0233115060251"
"265","Germany","DEU","DE","2019","Europe","Income",1,"Mother_Occ","19.2343042219176","16.2145792564862"
"266","Germany","DEU","DE","2019","Europe","Income",1,"Sex","4.31088352200452","6.37298409640193"
"267","Denmark","DNK","DK","2005","Europe","Income",0,"Birth_Area","0","2.77540048382563"
"268","Denmark","DNK","DK","2005","Europe","Income",0,"Father_Edu","34.9735794339338","26.9243613865456"
"269","Denmark","DNK","DK","2005","Europe","Income",0,"Father_Occ","13.4349455964713","16.5441867297129"
"270","Denmark","DNK","DK","2005","Europe","Income",0,"Mother_Edu","32.7789722888442","31.4459123924226"
"271","Denmark","DNK","DK","2005","Europe","Income",0,"Mother_Occ","16.1573696498737","16.1461269346131"
"272","Denmark","DNK","DK","2005","Europe","Income",0,"Sex","3.01750661661517","6.16401207288019"
"273","Denmark","DNK","DK","2011","Europe","Income",0,"Birth_Area","5.87103801294254","19.5482396969877"
"274","Denmark","DNK","DK","2011","Europe","Income",0,"Father_Edu","14.6437764026802","21.1344266861553"
"275","Denmark","DNK","DK","2011","Europe","Income",0,"Father_Occ","22.7146957212387","15.5827722240688"
"276","Denmark","DNK","DK","2011","Europe","Income",0,"Mother_Edu","21.2491323667178","17.380450811792"
"277","Denmark","DNK","DK","2011","Europe","Income",0,"Mother_Occ","27.7306379064298","15.7413909229856"
"278","Denmark","DNK","DK","2011","Europe","Income",0,"Sex","7.790719589991","10.6127196580105"
"279","Denmark","DNK","DK","2019","Europe","Income",1,"Birth_Area","6.57461072554485","5.65398882946917"
"280","Denmark","DNK","DK","2019","Europe","Income",1,"Father_Edu","17.8352205124808","17.7255779971664"
"281","Denmark","DNK","DK","2019","Europe","Income",1,"Father_Occ","27.2367673628942","27.1710670652242"
"282","Denmark","DNK","DK","2019","Europe","Income",1,"Mother_Edu","13.6921659682308","15.9466069619268"
"283","Denmark","DNK","DK","2019","Europe","Income",1,"Mother_Occ","29.7509286675246","29.7336324850337"
"284","Denmark","DNK","DK","2019","Europe","Income",1,"Sex","4.91030676332476","3.7691266611796"
"285","Ecuador","ECU","ECU","2006","LATAM","Income",0,"Ethnicity","4.32644565581586","6.74354276526327"
"286","Ecuador","ECU","ECU","2006","LATAM","Income",0,"Father_Edu","29.0403259129194","23.9706092144416"
"287","Ecuador","ECU","ECU","2006","LATAM","Income",0,"Father_Occ","17.8072236355126","17.4887198192391"
"288","Ecuador","ECU","ECU","2006","LATAM","Income",0,"Mother_Edu","27.8320683170875","23.9001028033262"
"289","Ecuador","ECU","ECU","2006","LATAM","Income",0,"Mother_Occ","11.7290020180525","17.098584344401"
"290","Ecuador","ECU","ECU","2006","LATAM","Income",0,"Sex","1.25567744282818","3.08190981467395"
"291","Ecuador","ECU","ECU","2014","LATAM","Income",1,"Ethnicity","7.16666425574054","7.88831702175057"
"292","Ecuador","ECU","ECU","2014","LATAM","Income",1,"Father_Edu","27.4108123710466","25.0124514846869"
"293","Ecuador","ECU","ECU","2014","LATAM","Income",1,"Father_Occ","19.8487419647123","18.740832938835"
"294","Ecuador","ECU","ECU","2014","LATAM","Income",1,"Mother_Edu","27.5287529186684","24.8210490875602"
"295","Ecuador","ECU","ECU","2014","LATAM","Income",1,"Mother_Occ","13.8129609981885","17.5796583962663"
"296","Ecuador","ECU","ECU","2014","LATAM","Income",1,"Sex","2.34497716179342","3.08411685387014"
"297","Spain","ESP","ES","2005","Europe","Income",0,"Birth_Area","4.67127151647355","4.68855798739838"
"298","Spain","ESP","ES","2005","Europe","Income",0,"Father_Edu","24.8049336157715","24.4069846636492"
"299","Spain","ESP","ES","2005","Europe","Income",0,"Father_Occ","28.9492947680047","26.4122483934374"
"300","Spain","ESP","ES","2005","Europe","Income",0,"Mother_Edu","20.3323062336584","20.5969835770516"
"301","Spain","ESP","ES","2005","Europe","Income",0,"Mother_Occ","17.1453882519082","17.5088774331777"
"302","Spain","ESP","ES","2005","Europe","Income",0,"Sex","4.0968056141838","6.38634794528574"
"303","Spain","ESP","ES","2011","Europe","Income",0,"Birth_Area","21.2459229357583","21.1226700983729"
"304","Spain","ESP","ES","2011","Europe","Income",0,"Father_Edu","18.9226237992339","19.3741117897286"
"305","Spain","ESP","ES","2011","Europe","Income",0,"Father_Occ","32.4134719253323","27.7897537139131"
"306","Spain","ESP","ES","2011","Europe","Income",0,"Mother_Edu","14.5341698746877","15.5160024893653"
"307","Spain","ESP","ES","2011","Europe","Income",0,"Mother_Occ","11.5262270312648","12.774714302265"
"308","Spain","ESP","ES","2011","Europe","Income",0,"Sex","1.35758443372304","3.42274760635507"
"309","Spain","ESP","ES","2019","Europe","Income",1,"Birth_Area","17.8103219745466","17.8829940012819"
"310","Spain","ESP","ES","2019","Europe","Income",1,"Father_Edu","18.6028550387793","19.8096564993124"
"311","Spain","ESP","ES","2019","Europe","Income",1,"Father_Occ","27.651776860777","22.9623769506351"
"312","Spain","ESP","ES","2019","Europe","Income",1,"Mother_Edu","15.442754845953","17.4159243047896"
"313","Spain","ESP","ES","2019","Europe","Income",1,"Mother_Occ","18.5827909105709","18.9339008183894"
"314","Spain","ESP","ES","2019","Europe","Income",1,"Sex","1.90950036937317","2.99514742559152"
"315","Estonia","EST","EE","2005","Europe","Income",0,"Birth_Area","4.63996622443931","7.1308599222086"
"316","Estonia","EST","EE","2005","Europe","Income",0,"Father_Edu","21.5362094486142","24.0425171854505"
"317","Estonia","EST","EE","2005","Europe","Income",0,"Father_Occ","20.8138047501934","19.7706037613393"
"318","Estonia","EST","EE","2005","Europe","Income",0,"Mother_Edu","23.7970685973754","21.7545635538104"
"319","Estonia","EST","EE","2005","Europe","Income",0,"Mother_Occ","23.90409151566","21.7225642023189"
"320","Estonia","EST","EE","2005","Europe","Income",0,"Sex","5.3088594637178","5.57889137487229"
"321","Estonia","EST","EE","2011","Europe","Income",0,"Birth_Area","9.40723866711416","8.17090828038837"
"322","Estonia","EST","EE","2011","Europe","Income",0,"Father_Edu","20.0924641496016","21.1875019525377"
"323","Estonia","EST","EE","2011","Europe","Income",0,"Father_Occ","23.0424564265733","26.6978030745615"
"324","Estonia","EST","EE","2011","Europe","Income",0,"Mother_Edu","18.7466151384486","17.8949690839599"
"325","Estonia","EST","EE","2011","Europe","Income",0,"Mother_Occ","24.7145718646725","22.5864019277883"
"326","Estonia","EST","EE","2011","Europe","Income",0,"Sex","3.99665375358994","3.46241568076425"
"327","Estonia","EST","EE","2019","Europe","Income",1,"Birth_Area","2.6457622015731","4.32681321637921"
"328","Estonia","EST","EE","2019","Europe","Income",1,"Father_Edu","20.6047415285331","21.2388713197346"
"329","Estonia","EST","EE","2019","Europe","Income",1,"Father_Occ","24.1524037963352","24.0093893808873"
"330","Estonia","EST","EE","2019","Europe","Income",1,"Mother_Edu","20.7914605952595","19.0632497747803"
"331","Estonia","EST","EE","2019","Europe","Income",1,"Mother_Occ","29.3805376646753","28.4116236007557"
"332","Estonia","EST","EE","2019","Europe","Income",1,"Sex","2.42509421362368","2.95005270746284"
"333","Finland","FIN","FI","2005","Europe","Income",0,"Birth_Area","0.520883450665263","6.87967556615319"
"334","Finland","FIN","FI","2005","Europe","Income",0,"Father_Edu","18.4238348668024","21.8511268172089"
"335","Finland","FIN","FI","2005","Europe","Income",0,"Father_Occ","20.5266754997517","21.6791931897675"
"336","Finland","FIN","FI","2005","Europe","Income",0,"Mother_Edu","26.4319128936506","17.4602064856272"
"337","Finland","FIN","FI","2005","Europe","Income",0,"Mother_Occ","26.8496004166337","18.2669719682371"
"338","Finland","FIN","FI","2005","Europe","Income",0,"Sex","7.24709287249636","13.8628259730061"
"339","Finland","FIN","FI","2011","Europe","Income",0,"Birth_Area","7.16495404739692","14.2225287443841"
"340","Finland","FIN","FI","2011","Europe","Income",0,"Father_Edu","19.3553380946469","17.4885891538059"
"341","Finland","FIN","FI","2011","Europe","Income",0,"Father_Occ","26.0117576493551","20.0625043108999"
"342","Finland","FIN","FI","2011","Europe","Income",0,"Mother_Edu","12.2812608423883","16.1259281882856"
"343","Finland","FIN","FI","2011","Europe","Income",0,"Mother_Occ","31.3629968992186","20.3869473979285"
"344","Finland","FIN","FI","2011","Europe","Income",0,"Sex","3.82369246699435","11.7135022046959"
"345","Finland","FIN","FI","2019","Europe","Income",1,"Birth_Area","3.81128773561691","7.94632238655582"
"346","Finland","FIN","FI","2019","Europe","Income",1,"Father_Edu","21.377034519265","21.0767916790304"
"347","Finland","FIN","FI","2019","Europe","Income",1,"Father_Occ","27.0827479597637","19.9064672420925"
"348","Finland","FIN","FI","2019","Europe","Income",1,"Mother_Edu","21.320958711496","21.3336921651875"
"349","Finland","FIN","FI","2019","Europe","Income",1,"Mother_Occ","24.3911091868503","22.1900271190446"
"350","Finland","FIN","FI","2019","Europe","Income",1,"Sex","2.016861887008","7.5466994080892"
"351","France","FRA","FR","2005","Europe","Income",0,"Birth_Area","5.98433503578204","6.36563135522826"
"352","France","FRA","FR","2005","Europe","Income",0,"Father_Edu","22.0910714298821","21.2784272454278"
"353","France","FRA","FR","2005","Europe","Income",0,"Father_Occ","23.40902143629","22.3703082547295"
"354","France","FRA","FR","2005","Europe","Income",0,"Mother_Edu","20.1765756311002","20.8330547284757"
"355","France","FRA","FR","2005","Europe","Income",0,"Mother_Occ","24.3662693356809","25.4304484518514"
"356","France","FRA","FR","2005","Europe","Income",0,"Sex","3.97272713126481","3.7221299642873"
"357","France","FRA","FR","2011","Europe","Income",0,"Birth_Area","8.8422756506893","11.9144999582254"
"358","France","FRA","FR","2011","Europe","Income",0,"Father_Edu","19.3545419976948","21.460887947749"
"359","France","FRA","FR","2011","Europe","Income",0,"Father_Occ","31.0066926473877","23.4374528618794"
"360","France","FRA","FR","2011","Europe","Income",0,"Mother_Edu","16.469649626696","16.0779026496916"
"361","France","FRA","FR","2011","Europe","Income",0,"Mother_Occ","20.3818451346847","18.8394862531221"
"362","France","FRA","FR","2011","Europe","Income",0,"Sex","3.94499494284739","8.26977032933248"
"363","France","FRA","FR","2019","Europe","Income",1,"Birth_Area","10.8120856161904","16.4639063461198"
"364","France","FRA","FR","2019","Europe","Income",1,"Father_Edu","24.2482266462583","13.3032307611247"
"365","France","FRA","FR","2019","Europe","Income",1,"Father_Occ","30.1640480842919","13.0408350521817"
"366","France","FRA","FR","2019","Europe","Income",1,"Mother_Edu","18.1364359680415","24.9202044206917"
"367","France","FRA","FR","2019","Europe","Income",1,"Mother_Occ","13.1759645759015","22.5347888848463"
"368","France","FRA","FR","2019","Europe","Income",1,"Sex","3.46323910931633","9.73703453503582"
"369","United Kingdom","GBR","UK","2005","Europe","Income",0,"Birth_Area","0","19.0551508208197"
"370","United Kingdom","GBR","UK","2005","Europe","Income",0,"Father_Edu","18.8598346770553","17.6753954113818"
"371","United Kingdom","GBR","UK","2005","Europe","Income",0,"Father_Occ","30.1511125627982","15.7622891714048"
"372","United Kingdom","GBR","UK","2005","Europe","Income",0,"Mother_Edu","16.4968730142495","19.4377720688151"
"373","United Kingdom","GBR","UK","2005","Europe","Income",0,"Mother_Occ","27.63250671861","17.6522062448366"
"374","United Kingdom","GBR","UK","2005","Europe","Income",0,"Sex","7.31386631268668","10.4171862827419"
"375","United Kingdom","GBR","UK","2011","Europe","Income",1,"Birth_Area","6.12582079061835","15.2771682697234"
"376","United Kingdom","GBR","UK","2011","Europe","Income",1,"Father_Edu","22.113475914531","14.0665162010997"
"377","United Kingdom","GBR","UK","2011","Europe","Income",1,"Father_Occ","29.6769208804773","21.0552804154278"
"378","United Kingdom","GBR","UK","2011","Europe","Income",1,"Mother_Edu","13.4917130895437","19.8171135270626"
"379","United Kingdom","GBR","UK","2011","Europe","Income",1,"Mother_Occ","21.7042596757018","21.7844231385763"
"380","United Kingdom","GBR","UK","2011","Europe","Income",1,"Sex","6.88780964912786","7.99949844811012"
"381","Georgia","GEO","GEO","2016","Asia + Oceania","Income",1,"Birth_Area","10.8648576619618","13.6039945851069"
"382","Georgia","GEO","GEO","2016","Asia + Oceania","Income",1,"Ethnicity","0","8.3904906192285"
"383","Georgia","GEO","GEO","2016","Asia + Oceania","Income",1,"Father_Edu","23.8852727701001","18.1237661684289"
"384","Georgia","GEO","GEO","2016","Asia + Oceania","Income",1,"Father_Occ","20.1963902665484","17.7593814826417"
"385","Georgia","GEO","GEO","2016","Asia + Oceania","Income",1,"Mother_Edu","26.1917059988982","17.7874110738561"
"386","Georgia","GEO","GEO","2016","Asia + Oceania","Income",1,"Mother_Occ","14.2292877847039","17.0656491000853"
"387","Georgia","GEO","GEO","2016","Asia + Oceania","Income",1,"Sex","4.90480849274359","7.26930697065254"
"388","Ghana","GHA","GHA","2013","Africa","Consumption",0,"Birth_Area","22.0991364564143","18.2602421606746"
"389","Ghana","GHA","GHA","2013","Africa","Consumption",0,"Ethnicity","17.2961006787714","15.6381056231299"
"390","Ghana","GHA","GHA","2013","Africa","Consumption",0,"Father_Edu","14.3782154623193","16.0062565983152"
"391","Ghana","GHA","GHA","2013","Africa","Consumption",0,"Father_Occ","15.7879802298186","18.2827820162982"
"392","Ghana","GHA","GHA","2013","Africa","Consumption",0,"Mother_Edu","9.78008735437097","11.806330167119"
"393","Ghana","GHA","GHA","2013","Africa","Consumption",0,"Mother_Occ","16.5748256814461","16.3218145770455"
"394","Ghana","GHA","GHA","2013","Africa","Consumption",0,"Sex","4.08365413685926","3.68446885741759"
"395","Ghana","GHA","GHA","2017","Africa","Consumption",1,"Birth_Area","25.2117061307652","19.4171819731931"
"396","Ghana","GHA","GHA","2017","Africa","Consumption",1,"Ethnicity","15.6726090480561","14.5380046019292"
"397","Ghana","GHA","GHA","2017","Africa","Consumption",1,"Father_Edu","13.8869652591746","16.0740419225123"
"398","Ghana","GHA","GHA","2017","Africa","Consumption",1,"Father_Occ","13.7084008802865","16.0083290959633"
"399","Ghana","GHA","GHA","2017","Africa","Consumption",1,"Mother_Edu","10.2122983041606","13.3469596207285"
"400","Ghana","GHA","GHA","2017","Africa","Consumption",1,"Mother_Occ","18.6236203623129","17.3965125568111"
"401","Ghana","GHA","GHA","2017","Africa","Consumption",1,"Sex","2.68440001524435","3.21897022886263"
"402","Gambia","GMB","GAM","2015","Africa","Income",1,"Birth_Area","35.1924993107564","44.8234002316563"
"403","Gambia","GMB","GAM","2015","Africa","Income",1,"Ethnicity","25.6312597994152","23.8317976510463"
"404","Gambia","GMB","GAM","2015","Africa","Income",1,"Father_Edu","4.14613275589065","2.00491277596961"
"405","Gambia","GMB","GAM","2015","Africa","Income",1,"Father_Occ","10.0560071441125","9.99486718287501"
"406","Gambia","GMB","GAM","2015","Africa","Income",1,"Mother_Edu","1.32136900645424","0.375427644141432"
"407","Gambia","GMB","GAM","2015","Africa","Income",1,"Mother_Occ","18.8947840375103","14.3972156692848"
"408","Gambia","GMB","GAM","2015","Africa","Income",1,"Sex","4.75794794586077","4.57237884502661"
"409","Guinea Bissau","GNB","GNB","2018","Africa","Consumption",1,"Ethnicity","27.3661188718044","27.8833163577977"
"410","Guinea Bissau","GNB","GNB","2018","Africa","Consumption",1,"Father_Edu","17.5272978768118","15.1952810607959"
"411","Guinea Bissau","GNB","GNB","2018","Africa","Consumption",1,"Father_Occ","21.6073273174999","22.520222446544"
"412","Guinea Bissau","GNB","GNB","2018","Africa","Consumption",1,"Mother_Edu","9.97286836553781","9.8321871495421"
"413","Guinea Bissau","GNB","GNB","2018","Africa","Consumption",1,"Mother_Occ","21.3417004007884","21.6139342110439"
"414","Guinea Bissau","GNB","GNB","2018","Africa","Consumption",1,"Sex","2.18468716755765","2.95505877427641"
"415","Greece","GRC","EL","2005","Europe","Income",0,"Birth_Area","7.51974874250008","11.506832653971"
"416","Greece","GRC","EL","2005","Europe","Income",0,"Father_Edu","22.1712139449743","21.8492814034801"
"417","Greece","GRC","EL","2005","Europe","Income",0,"Father_Occ","24.9469111895677","23.7742525914394"
"418","Greece","GRC","EL","2005","Europe","Income",0,"Mother_Edu","21.7613008497812","19.571208991694"
"419","Greece","GRC","EL","2005","Europe","Income",0,"Mother_Occ","21.23426972739","20.1065560084637"
"420","Greece","GRC","EL","2005","Europe","Income",0,"Sex","2.36655554578655","3.19186835095162"
"421","Greece","GRC","EL","2011","Europe","Income",0,"Birth_Area","13.2795951678487","14.4166351928194"
"422","Greece","GRC","EL","2011","Europe","Income",0,"Father_Edu","20.7722078773551","22.2866082931253"
"423","Greece","GRC","EL","2011","Europe","Income",0,"Father_Occ","27.3752866578791","21.0948108001286"
"424","Greece","GRC","EL","2011","Europe","Income",0,"Mother_Edu","18.4115216812093","21.2797448938695"
"425","Greece","GRC","EL","2011","Europe","Income",0,"Mother_Occ","17.1342421934395","17.7659971127929"
"426","Greece","GRC","EL","2011","Europe","Income",0,"Sex","3.02714642226836","3.15620370726422"
"427","Greece","GRC","EL","2019","Europe","Income",1,"Birth_Area","10.0138609551334","10.9105250452248"
"428","Greece","GRC","EL","2019","Europe","Income",1,"Father_Edu","24.2529688317945","21.7351276519186"
"429","Greece","GRC","EL","2019","Europe","Income",1,"Father_Occ","27.7239978986814","20.8436897901908"
"430","Greece","GRC","EL","2019","Europe","Income",1,"Mother_Edu","17.2451715111478","21.3530828540353"
"431","Greece","GRC","EL","2019","Europe","Income",1,"Mother_Occ","18.5205117364812","21.200264934882"
"432","Greece","GRC","EL","2019","Europe","Income",1,"Sex","2.24348906676163","3.95730972374853"
"433","Guatemala","GTM","GTM","2000","LATAM","Income",0,"Birth_Area","18.1487358450252","10.5509398923589"
"434","Guatemala","GTM","GTM","2000","LATAM","Income",0,"Father_Edu","20.8632007159466","22.2058710398976"
"435","Guatemala","GTM","GTM","2000","LATAM","Income",0,"Father_Occ","17.58890686818","11.5218180618297"
"436","Guatemala","GTM","GTM","2000","LATAM","Income",0,"Mother_Edu","21.079605194391","22.6320030871314"
"437","Guatemala","GTM","GTM","2000","LATAM","Income",0,"Mother_Occ","8.68809658086039","19.6578649842728"
"438","Guatemala","GTM","GTM","2000","LATAM","Income",0,"Sex","1.612611024767","3.35941245605253"
"439","Guatemala","GTM","GTM","2006","LATAM","Income",0,"Birth_Area","23.8378778307139","18.7788523772205"
"440","Guatemala","GTM","GTM","2006","LATAM","Income",0,"Father_Edu","30.938605258709","34.3824053349591"
"441","Guatemala","GTM","GTM","2006","LATAM","Income",0,"Mother_Edu","28.0199013465883","29.7866884750361"
"442","Guatemala","GTM","GTM","2006","LATAM","Income",0,"Sex","2.40500731185772","5.07923926145001"
"443","Guatemala","GTM","GTM","2011","LATAM","Income",1,"Birth_Area","27.951856662279","18.2485254794303"
"444","Guatemala","GTM","GTM","2011","LATAM","Income",1,"Father_Edu","28.8292683368684","34.9352096653737"
"445","Guatemala","GTM","GTM","2011","LATAM","Income",1,"Mother_Edu","27.8014432323494","30.0923073377238"
"446","Guatemala","GTM","GTM","2011","LATAM","Income",1,"Sex","3.00829619895108","5.85270294130106"
"447","Croatia","HRV","HR","2011","Europe","Income",1,"Birth_Area","1.36423933740665","1.2795622621937"
"448","Croatia","HRV","HR","2011","Europe","Income",1,"Father_Edu","22.429735522714","22.3261437662268"
"449","Croatia","HRV","HR","2011","Europe","Income",1,"Father_Occ","27.9109917207638","25.1622989567093"
"450","Croatia","HRV","HR","2011","Europe","Income",1,"Mother_Edu","24.0501583061991","24.443635198035"
"451","Croatia","HRV","HR","2011","Europe","Income",1,"Mother_Occ","21.5842975487217","25.5087975546415"
"452","Croatia","HRV","HR","2011","Europe","Income",1,"Sex","2.66057756419479","1.2795622621937"
"453","Hungary","HUN","HU","2005","Europe","Income",0,"Birth_Area","0.971549183306371","0.871096493213909"
"454","Hungary","HUN","HU","2005","Europe","Income",0,"Father_Edu","23.616489116497","24.1317968600626"
"455","Hungary","HUN","HU","2005","Europe","Income",0,"Father_Occ","26.2058781487712","23.3691509463954"
"456","Hungary","HUN","HU","2005","Europe","Income",0,"Mother_Edu","19.2194134013144","22.6945026381515"
"457","Hungary","HUN","HU","2005","Europe","Income",0,"Mother_Occ","28.1601340221857","25.2024343927108"
"458","Hungary","HUN","HU","2005","Europe","Income",0,"Sex","1.82653612792522","3.73101866946581"
"459","Hungary","HUN","HU","2011","Europe","Income",0,"Birth_Area","0","0"
"460","Hungary","HUN","HU","2011","Europe","Income",0,"Father_Edu","22.3321864062562","22.9289533570058"
"461","Hungary","HUN","HU","2011","Europe","Income",0,"Father_Occ","27.0510254695648","25.4281879545108"
"462","Hungary","HUN","HU","2011","Europe","Income",0,"Mother_Edu","21.0213977775594","21.6793360582534"
"463","Hungary","HUN","HU","2011","Europe","Income",0,"Mother_Occ","28.0850920544257","28.1546256972435"
"464","Hungary","HUN","HU","2011","Europe","Income",0,"Sex","1.91301243477908","2.36706871389676"
"465","Hungary","HUN","HU","2019","Europe","Income",1,"Birth_Area","0","1.23804223460889"
"466","Hungary","HUN","HU","2019","Europe","Income",1,"Father_Edu","18.1164021762072","22.0404920438785"
"467","Hungary","HUN","HU","2019","Europe","Income",1,"Father_Occ","20.6305004649041","20.3844074936686"
"468","Hungary","HUN","HU","2019","Europe","Income",1,"Mother_Edu","23.2547052479965","24.5753153350161"
"469","Hungary","HUN","HU","2019","Europe","Income",1,"Mother_Occ","36.5592399874508","29.7801524928187"
"470","Hungary","HUN","HU","2019","Europe","Income",1,"Sex","2.79324837283562","1.98159040000928"
"471","Indonesia","IDN","IDN","2000","Asia + Oceania","Consumption",0,"Birth_Area","20.2758283602187","16.7961823272932"
"472","Indonesia","IDN","IDN","2000","Asia + Oceania","Consumption",0,"Ethnicity","7.58931312344849","6.33986381595884"
"473","Indonesia","IDN","IDN","2000","Asia + Oceania","Consumption",0,"Father_Edu","27.0108754197393","23.1330794636677"
"474","Indonesia","IDN","IDN","2000","Asia + Oceania","Consumption",0,"Father_Occ","8.62475664644958","13.334115427061"
"475","Indonesia","IDN","IDN","2000","Asia + Oceania","Consumption",0,"Mother_Edu","24.0071563710335","20.3546612171522"
"476","Indonesia","IDN","IDN","2000","Asia + Oceania","Consumption",0,"Mother_Occ","8.06505744482737","12.9309380158946"
"477","Indonesia","IDN","IDN","2000","Asia + Oceania","Consumption",0,"Sex","4.427012634283","7.11115973297257"
"478","Indonesia","IDN","IDN","2014","Asia + Oceania","Consumption",1,"Birth_Area","15.7211486742598","9.85120750411967"
"479","Indonesia","IDN","IDN","2014","Asia + Oceania","Consumption",1,"Ethnicity","7.01789757010051","8.82014550331074"
"480","Indonesia","IDN","IDN","2014","Asia + Oceania","Consumption",1,"Father_Edu","23.4300130907838","21.8437016979256"
"481","Indonesia","IDN","IDN","2014","Asia + Oceania","Consumption",1,"Father_Occ","12.4254670809546","16.4690168000918"
"482","Indonesia","IDN","IDN","2014","Asia + Oceania","Consumption",1,"Mother_Edu","20.3710902326299","22.2312640102864"
"483","Indonesia","IDN","IDN","2014","Asia + Oceania","Consumption",1,"Mother_Occ","14.5468253479096","14.063205464871"
"484","Indonesia","IDN","IDN","2014","Asia + Oceania","Consumption",1,"Sex","6.48755800336178","6.72145901939472"
"485","India","IND","ind","2005","Asia + Oceania","Income",0,"Birth_Area","1.56542409275225","8.8053371962627"
"486","India","IND","ind","2005","Asia + Oceania","Income",0,"Ethnicity","20.1627923164432","13.4693349044501"
"487","India","IND","ind","2005","Asia + Oceania","Income",0,"Father_Edu","28.7207242841948","26.9626616073823"
"488","India","IND","ind","2005","Asia + Oceania","Income",0,"Father_Occ","28.4681951441628","23.1542190343446"
"489","India","IND","ind","2005","Asia + Oceania","Income",0,"Mother_Edu","19.7811927270615","21.7119975208065"
"490","India","IND","ind","2005","Asia + Oceania","Income",0,"Sex","1.30167143538548","5.89644973675376"
"491","India","IND","ind","2012","Asia + Oceania","Income",1,"Birth_Area","1.48601004487927","7.32364578956867"
"492","India","IND","ind","2012","Asia + Oceania","Income",1,"Ethnicity","14.0663544151359","10.2605767436849"
"493","India","IND","ind","2012","Asia + Oceania","Income",1,"Father_Edu","31.0722842156436","23.7162686438452"
"494","India","IND","ind","2012","Asia + Oceania","Income",1,"Father_Occ","28.4888206396088","22.6372973048536"
"495","India","IND","ind","2012","Asia + Oceania","Income",1,"Mother_Edu","22.3334378584474","26.5661077410025"
"496","India","IND","ind","2012","Asia + Oceania","Income",1,"Sex","2.55309282628497","9.49610377704512"
"497","Ireland","IRL","IE","2005","Europe","Income",0,"Birth_Area","4.85974188616539","7.14277014423881"
"498","Ireland","IRL","IE","2005","Europe","Income",0,"Father_Edu","19.9145923415796","24.2674686989889"
"499","Ireland","IRL","IE","2005","Europe","Income",0,"Father_Occ","18.147639065605","20.5243026378904"
"500","Ireland","IRL","IE","2005","Europe","Income",0,"Mother_Edu","19.7716019030615","16.4835148104661"
"501","Ireland","IRL","IE","2005","Europe","Income",0,"Mother_Occ","29.9647774488575","26.0875402699817"
"502","Ireland","IRL","IE","2005","Europe","Income",0,"Sex","7.34164735473094","5.49440343843397"
"503","Ireland","IRL","IE","2011","Europe","Income",0,"Birth_Area","11.8458294147258","16.4065402547743"
"504","Ireland","IRL","IE","2011","Europe","Income",0,"Father_Edu","19.1351676691665","16.1464138428821"
"505","Ireland","IRL","IE","2011","Europe","Income",0,"Father_Occ","36.3856334984004","36.6504957214515"
"506","Ireland","IRL","IE","2011","Europe","Income",0,"Mother_Edu","14.4595363585492","13.9429901186179"
"507","Ireland","IRL","IE","2011","Europe","Income",0,"Mother_Occ","11.19240267877","10.561346764018"
"508","Ireland","IRL","IE","2011","Europe","Income",0,"Sex","6.98143038038804","6.29221329825616"
"509","Ireland","IRL","IE","2019","Europe","Income",1,"Birth_Area","8.52185394438374","11.4834983234031"
"510","Ireland","IRL","IE","2019","Europe","Income",1,"Father_Edu","18.2616924914471","20.1386454611973"
"511","Ireland","IRL","IE","2019","Europe","Income",1,"Father_Occ","25.8182687393429","20.5726428105136"
"512","Ireland","IRL","IE","2019","Europe","Income",1,"Mother_Edu","22.3114743728044","21.1678391752903"
"513","Ireland","IRL","IE","2019","Europe","Income",1,"Mother_Occ","20.908756626189","22.4326314504407"
"514","Ireland","IRL","IE","2019","Europe","Income",1,"Sex","4.17795382583285","4.20474277915503"
"515","Iceland","ISL","IS","2005","Europe","Income",1,"Birth_Area","0","0.516036522610418"
"516","Iceland","ISL","IS","2005","Europe","Income",1,"Father_Edu","20.3544827445359","19.0133394226406"
"517","Iceland","ISL","IS","2005","Europe","Income",1,"Father_Occ","21.819022143881","24.2281677692495"
"518","Iceland","ISL","IS","2005","Europe","Income",1,"Mother_Edu","17.919465429962","17.4182154577956"
"519","Iceland","ISL","IS","2005","Europe","Income",1,"Mother_Occ","30.5886134869479","31.1454841937218"
"520","Iceland","ISL","IS","2005","Europe","Income",1,"Sex","9.96154652508634","7.67875663398199"
"521","Italy","ITA","IT","2005","Europe","Income",0,"Birth_Area","3.3327599875155","8.16462696552712"
"522","Italy","ITA","IT","2005","Europe","Income",0,"Father_Edu","26.4546831244293","20.6132057565896"
"523","Italy","ITA","IT","2005","Europe","Income",0,"Father_Occ","24.0303364554927","18.0602516865504"
"524","Italy","ITA","IT","2005","Europe","Income",0,"Mother_Edu","22.6369035569918","20.4492545777797"
"525","Italy","ITA","IT","2005","Europe","Income",0,"Mother_Occ","19.9406675420062","27.6396848484404"
"526","Italy","ITA","IT","2005","Europe","Income",0,"Sex","3.60464933356446","5.07297616511277"
"527","Italy","ITA","IT","2011","Europe","Income",0,"Birth_Area","13.949708104817","19.1275219230047"
"528","Italy","ITA","IT","2011","Europe","Income",0,"Father_Edu","20.0474974562986","17.3940130478503"
"529","Italy","ITA","IT","2011","Europe","Income",0,"Father_Occ","26.3665775503745","16.6909115460395"
"530","Italy","ITA","IT","2011","Europe","Income",0,"Mother_Edu","18.8181044418871","16.4484627523115"
"531","Italy","ITA","IT","2011","Europe","Income",0,"Mother_Occ","17.5026539164666","21.6126220587156"
"532","Italy","ITA","IT","2011","Europe","Income",0,"Sex","3.31545853015626","8.72646867207838"
"533","Italy","ITA","IT","2019","Europe","Income",1,"Birth_Area","11.8431748120672","13.2396550809909"
"534","Italy","ITA","IT","2019","Europe","Income",1,"Father_Edu","19.8113327848601","16.9942486564739"
"535","Italy","ITA","IT","2019","Europe","Income",1,"Father_Occ","28.4184468215092","25.2593942454566"
"536","Italy","ITA","IT","2019","Europe","Income",1,"Mother_Edu","16.0402391530823","15.6965200045452"
"537","Italy","ITA","IT","2019","Europe","Income",1,"Mother_Occ","20.2748891449125","23.7978745986243"
"538","Italy","ITA","IT","2019","Europe","Income",1,"Sex","3.61191728356875","5.012307413909"
"539","Kazakhstan","KAZ","KAZ","2016","Asia + Oceania","Income",1,"Birth_Area","26.3822618667562","11.34634634348"
"540","Kazakhstan","KAZ","KAZ","2016","Asia + Oceania","Income",1,"Ethnicity","30.7088522554778","18.4072649557867"
"541","Kazakhstan","KAZ","KAZ","2016","Asia + Oceania","Income",1,"Father_Edu","12.7155390232733","10.6999931834075"
"542","Kazakhstan","KAZ","KAZ","2016","Asia + Oceania","Income",1,"Father_Occ","3.92978862389148","17.8294644036007"
"543","Kazakhstan","KAZ","KAZ","2016","Asia + Oceania","Income",1,"Mother_Edu","15.9815724364866","13.7946537679969"
"544","Kazakhstan","KAZ","KAZ","2016","Asia + Oceania","Income",1,"Mother_Occ","8.44920755361466","21.7663427422239"
"545","Kazakhstan","KAZ","KAZ","2016","Asia + Oceania","Income",1,"Sex","1.83277824049993","6.15593460350419"
"546","Kyrgyzstan","KGZ","KGZ","2016","Asia + Oceania","Income",1,"Birth_Area","12.046988033375","20.7690873115511"
"547","Kyrgyzstan","KGZ","KGZ","2016","Asia + Oceania","Income",1,"Ethnicity","13.7794199090008","18.3692174612156"
"548","Kyrgyzstan","KGZ","KGZ","2016","Asia + Oceania","Income",1,"Father_Edu","16.4325155813877","9.59866246500322"
"549","Kyrgyzstan","KGZ","KGZ","2016","Asia + Oceania","Income",1,"Father_Occ","13.5319296410542","16.8450661356543"
"550","Kyrgyzstan","KGZ","KGZ","2016","Asia + Oceania","Income",1,"Mother_Edu","27.3913846460606","12.3127214043799"
"551","Kyrgyzstan","KGZ","KGZ","2016","Asia + Oceania","Income",1,"Mother_Occ","13.1656440444934","17.6405661696095"
"552","Kyrgyzstan","KGZ","KGZ","2016","Asia + Oceania","Income",1,"Sex","3.65211814462833","4.46467905258622"
"553","South Korea","KOR","KOR","1999","Asia + Oceania","Income",0,"Birth_Area","22.4332230546935","24.8889842234277"
"554","South Korea","KOR","KOR","1999","Asia + Oceania","Income",0,"Ethnicity","11.2369418433611","8.01982727952939"
"555","South Korea","KOR","KOR","1999","Asia + Oceania","Income",0,"Father_Edu","19.3613191844362","23.3026131730743"
"556","South Korea","KOR","KOR","1999","Asia + Oceania","Income",0,"Father_Occ","24.952723158808","18.8004474456631"
"557","South Korea","KOR","KOR","1999","Asia + Oceania","Income",0,"Mother_Edu","16.0199500624019","19.0909097506574"
"558","South Korea","KOR","KOR","1999","Asia + Oceania","Income",0,"Sex","5.99584269629931","5.89721812764817"
"559","South Korea","KOR","KOR","2001","Asia + Oceania","Income",0,"Birth_Area","17.7001193215704","22.0187395188528"
"560","South Korea","KOR","KOR","2001","Asia + Oceania","Income",0,"Ethnicity","13.9064323605315","10.5165710233991"
"561","South Korea","KOR","KOR","2001","Asia + Oceania","Income",0,"Father_Edu","19.7801063105537","22.4656322818584"
"562","South Korea","KOR","KOR","2001","Asia + Oceania","Income",0,"Father_Occ","25.9677405607998","20.0822042124952"
"563","South Korea","KOR","KOR","2001","Asia + Oceania","Income",0,"Mother_Edu","18.0402429801462","20.550377583263"
"564","South Korea","KOR","KOR","2001","Asia + Oceania","Income",0,"Sex","4.60535846639835","4.36647538013154"
"565","South Korea","KOR","KOR","2003","Asia + Oceania","Income",0,"Birth_Area","25.630752339103","18.3603840687793"
"566","South Korea","KOR","KOR","2003","Asia + Oceania","Income",0,"Ethnicity","12.3501712402678","11.1749163022407"
"567","South Korea","KOR","KOR","2003","Asia + Oceania","Income",0,"Father_Edu","20.8605343820883","19.2431701086684"
"568","South Korea","KOR","KOR","2003","Asia + Oceania","Income",0,"Father_Occ","22.9819937819946","25.5458518353181"
"569","South Korea","KOR","KOR","2003","Asia + Oceania","Income",0,"Mother_Edu","12.5463755778314","21.6964941032438"
"570","South Korea","KOR","KOR","2003","Asia + Oceania","Income",0,"Sex","5.63017267871503","3.97918358174974"
"571","South Korea","KOR","KOR","2005","Asia + Oceania","Income",0,"Birth_Area","29.2517733367754","16.6566360978647"
"572","South Korea","KOR","KOR","2005","Asia + Oceania","Income",0,"Ethnicity","14.9356296897372","25.4133226619631"
"573","South Korea","KOR","KOR","2005","Asia + Oceania","Income",0,"Father_Edu","14.3976046833943","18.2113742621663"
"574","South Korea","KOR","KOR","2005","Asia + Oceania","Income",0,"Father_Occ","21.8714737932451","20.1573046097437"
"575","South Korea","KOR","KOR","2005","Asia + Oceania","Income",0,"Mother_Edu","13.0525421675369","12.8048976779176"
"576","South Korea","KOR","KOR","2005","Asia + Oceania","Income",0,"Sex","6.49097632931109","6.75646469034454"
"577","South Korea","KOR","KOR","2007","Asia + Oceania","Income",0,"Birth_Area","29.2843727512368","3.73146105629101"
"578","South Korea","KOR","KOR","2007","Asia + Oceania","Income",0,"Ethnicity","4.30863273725142","29.5257828322754"
"579","South Korea","KOR","KOR","2007","Asia + Oceania","Income",0,"Father_Edu","24.173552606598","17.7128965322117"
"580","South Korea","KOR","KOR","2007","Asia + Oceania","Income",0,"Father_Occ","20.1486342016977","20.6613625169297"
"581","South Korea","KOR","KOR","2007","Asia + Oceania","Income",0,"Mother_Edu","16.4660109104106","15.9057722189975"
"582","South Korea","KOR","KOR","2007","Asia + Oceania","Income",0,"Sex","5.61879679280547","12.4627248432946"
"583","South Korea","KOR","KOR","2009","Asia + Oceania","Income",0,"Birth_Area","23.4439222159323","19.9712133418882"
"584","South Korea","KOR","KOR","2009","Asia + Oceania","Income",0,"Ethnicity","12.9699818216127","13.5916023994466"
"585","South Korea","KOR","KOR","2009","Asia + Oceania","Income",0,"Father_Edu","19.8242516384836","18.9729648670817"
"586","South Korea","KOR","KOR","2009","Asia + Oceania","Income",0,"Father_Occ","23.1101937229761","18.250095281877"
"587","South Korea","KOR","KOR","2009","Asia + Oceania","Income",0,"Mother_Edu","12.2255105680948","20.7973500106936"
"588","South Korea","KOR","KOR","2009","Asia + Oceania","Income",0,"Sex","8.42614003290045","8.41677409901279"
"589","South Korea","KOR","KOR","2011","Asia + Oceania","Income",0,"Birth_Area","24.455246074684","17.0909074284923"
"590","South Korea","KOR","KOR","2011","Asia + Oceania","Income",0,"Ethnicity","12.2847780848606","14.2129498279994"
"591","South Korea","KOR","KOR","2011","Asia + Oceania","Income",0,"Father_Edu","16.5626455727365","14.9009078201491"
"592","South Korea","KOR","KOR","2011","Asia + Oceania","Income",0,"Father_Occ","21.4776422609344","22.4799117003316"
"593","South Korea","KOR","KOR","2011","Asia + Oceania","Income",0,"Mother_Edu","18.799099092234","25.2776075350738"
"594","South Korea","KOR","KOR","2011","Asia + Oceania","Income",0,"Sex","6.42058891455044","6.03771568795377"
"595","South Korea","KOR","KOR","2013","Asia + Oceania","Income",0,"Birth_Area","20.683102150678","23.0373855458812"
"596","South Korea","KOR","KOR","2013","Asia + Oceania","Income",0,"Ethnicity","24.4599207450182","15.6237284675053"
"597","South Korea","KOR","KOR","2013","Asia + Oceania","Income",0,"Father_Edu","13.4831851324645","16.4027907367584"
"598","South Korea","KOR","KOR","2013","Asia + Oceania","Income",0,"Father_Occ","22.4973443153308","18.777674105933"
"599","South Korea","KOR","KOR","2013","Asia + Oceania","Income",0,"Mother_Edu","14.2020358014779","15.9881285611882"
"600","South Korea","KOR","KOR","2013","Asia + Oceania","Income",0,"Sex","4.6744118550306","10.1702925827339"
"601","South Korea","KOR","KOR","2015","Asia + Oceania","Income",0,"Birth_Area","21.0292881889997","14.4110009815913"
"602","South Korea","KOR","KOR","2015","Asia + Oceania","Income",0,"Ethnicity","15.2362989544263","17.9394165783572"
"603","South Korea","KOR","KOR","2015","Asia + Oceania","Income",0,"Father_Edu","15.9657864876689","19.6658199239177"
"604","South Korea","KOR","KOR","2015","Asia + Oceania","Income",0,"Father_Occ","20.8719477406533","17.6243794715032"
"605","South Korea","KOR","KOR","2015","Asia + Oceania","Income",0,"Mother_Edu","19.3843653199234","23.610084501731"
"606","South Korea","KOR","KOR","2015","Asia + Oceania","Income",0,"Sex","7.51231330832834","6.7492985428996"
"607","South Korea","KOR","KOR","2017","Asia + Oceania","Income",0,"Birth_Area","19.9329520476378","20.5986717662"
"608","South Korea","KOR","KOR","2017","Asia + Oceania","Income",0,"Ethnicity","20.0438824945387","8.18828067079803"
"609","South Korea","KOR","KOR","2017","Asia + Oceania","Income",0,"Father_Edu","15.9764327748388","20.0088710012699"
"610","South Korea","KOR","KOR","2017","Asia + Oceania","Income",0,"Father_Occ","23.1745862181864","23.1667625968326"
"611","South Korea","KOR","KOR","2017","Asia + Oceania","Income",0,"Mother_Edu","15.6682926445585","23.0438874374722"
"612","South Korea","KOR","KOR","2017","Asia + Oceania","Income",0,"Sex","5.20385382023987","4.99352652742725"
"613","South Korea","KOR","KOR","2019","Asia + Oceania","Income",1,"Birth_Area","27.2444161880303","18.7417764689011"
"614","South Korea","KOR","KOR","2019","Asia + Oceania","Income",1,"Ethnicity","9.83461889888933","11.4788921610805"
"615","South Korea","KOR","KOR","2019","Asia + Oceania","Income",1,"Father_Edu","15.2778109602807","19.1624068342189"
"616","South Korea","KOR","KOR","2019","Asia + Oceania","Income",1,"Father_Occ","23.3864836702916","20.5084240032359"
"617","South Korea","KOR","KOR","2019","Asia + Oceania","Income",1,"Mother_Edu","20.3702818836959","21.2936006851625"
"618","South Korea","KOR","KOR","2019","Asia + Oceania","Income",1,"Sex","3.88638839881218","8.81489984740103"
"619","Lithuania","LTU","LT","2005","Europe","Income",0,"Birth_Area","0","2.76412536920597"
"620","Lithuania","LTU","LT","2005","Europe","Income",0,"Father_Edu","24.9350942966992","26.2300416705786"
"621","Lithuania","LTU","LT","2005","Europe","Income",0,"Father_Occ","28.2852330778331","24.5705871390515"
"622","Lithuania","LTU","LT","2005","Europe","Income",0,"Mother_Edu","20.1474846201143","22.7390410264771"
"623","Lithuania","LTU","LT","2005","Europe","Income",0,"Mother_Occ","22.7491881416331","21.4606464244117"
"624","Lithuania","LTU","LT","2005","Europe","Income",0,"Sex","4.20462559783884","2.2355583702751"
"625","Lithuania","LTU","LT","2011","Europe","Income",0,"Birth_Area","0.561136035037549","0.552370882930753"
"626","Lithuania","LTU","LT","2011","Europe","Income",0,"Father_Edu","26.9364455241353","26.9658724281498"
"627","Lithuania","LTU","LT","2011","Europe","Income",0,"Father_Occ","25.7492705308624","22.0380985945786"
"628","Lithuania","LTU","LT","2011","Europe","Income",0,"Mother_Edu","24.1329961424308","27.1560116114387"
"629","Lithuania","LTU","LT","2011","Europe","Income",0,"Mother_Occ","19.8706088171861","21.6261303641193"
"630","Lithuania","LTU","LT","2011","Europe","Income",0,"Sex","2.74954295034772","1.66151611878278"
"631","Lithuania","LTU","LT","2019","Europe","Income",1,"Birth_Area","0","0.216439309489197"
"632","Lithuania","LTU","LT","2019","Europe","Income",1,"Father_Edu","18.6956695358204","21.2301912772094"
"633","Lithuania","LTU","LT","2019","Europe","Income",1,"Father_Occ","22.985910542284","25.6456369180884"
"634","Lithuania","LTU","LT","2019","Europe","Income",1,"Mother_Edu","23.7192850733034","20.7590309191888"
"635","Lithuania","LTU","LT","2019","Europe","Income",1,"Mother_Occ","31.7619590968164","25.5244813974546"
"636","Lithuania","LTU","LT","2019","Europe","Income",1,"Sex","3.62482292337129","6.62422017856978"
"637","Luxembourg","LUX","LU","2005","Europe","Income",0,"Birth_Area","11.6522962579167","18.9434754255363"
"638","Luxembourg","LUX","LU","2005","Europe","Income",0,"Father_Edu","23.8129602860783","22.4462581314896"
"639","Luxembourg","LUX","LU","2005","Europe","Income",0,"Father_Occ","23.138576413318","20.5525662310836"
"640","Luxembourg","LUX","LU","2005","Europe","Income",0,"Mother_Edu","18.9182386289471","20.1475569807077"
"641","Luxembourg","LUX","LU","2005","Europe","Income",0,"Mother_Occ","19.7666570495165","16.4258503556324"
"642","Luxembourg","LUX","LU","2005","Europe","Income",0,"Sex","2.71127136422355","1.48429287555041"
"643","Luxembourg","LUX","LU","2011","Europe","Income",0,"Birth_Area","17.516753340448","21.6642322733895"
"644","Luxembourg","LUX","LU","2011","Europe","Income",0,"Father_Edu","24.0794224620404","22.1069070823766"
"645","Luxembourg","LUX","LU","2011","Europe","Income",0,"Father_Occ","22.0958868898838","18.4956125880081"
"646","Luxembourg","LUX","LU","2011","Europe","Income",0,"Mother_Edu","21.1891277711837","21.023518734066"
"647","Luxembourg","LUX","LU","2011","Europe","Income",0,"Mother_Occ","11.4187982671895","12.8689827790404"
"648","Luxembourg","LUX","LU","2011","Europe","Income",0,"Sex","3.70001126925453","3.84074654311927"
"649","Luxembourg","LUX","LU","2019","Europe","Income",1,"Birth_Area","19.7022068547026","27.278160855708"
"650","Luxembourg","LUX","LU","2019","Europe","Income",1,"Father_Edu","17.7855356462312","15.4236939688216"
"651","Luxembourg","LUX","LU","2019","Europe","Income",1,"Father_Occ","23.7982402494562","15.6496890047934"
"652","Luxembourg","LUX","LU","2019","Europe","Income",1,"Mother_Edu","19.361681513096","16.6358491617614"
"653","Luxembourg","LUX","LU","2019","Europe","Income",1,"Mother_Occ","15.6742785282703","19.2450645770727"
"654","Luxembourg","LUX","LU","2019","Europe","Income",1,"Sex","3.67805720824382","5.76754243184295"
"655","Latvia","LVA","LV","2005","Europe","Income",0,"Birth_Area","3.67005730087744","3.34527607700465"
"656","Latvia","LVA","LV","2005","Europe","Income",0,"Father_Edu","20.4689253519532","24.1702787357815"
"657","Latvia","LVA","LV","2005","Europe","Income",0,"Father_Occ","21.0692819864721","18.6500002532168"
"658","Latvia","LVA","LV","2005","Europe","Income",0,"Mother_Edu","27.8955592752613","23.1345378628053"
"659","Latvia","LVA","LV","2005","Europe","Income",0,"Mother_Occ","22.8814696054829","26.3960197606878"
"660","Latvia","LVA","LV","2005","Europe","Income",0,"Sex","4.01470647995312","4.3038873105039"
"661","Latvia","LVA","LV","2011","Europe","Income",0,"Birth_Area","3.80191008803775","3.16908510363093"
"662","Latvia","LVA","LV","2011","Europe","Income",0,"Father_Edu","19.9058991317052","23.3961568072459"
"663","Latvia","LVA","LV","2011","Europe","Income",0,"Father_Occ","21.0909841798902","19.2786867403523"
"664","Latvia","LVA","LV","2011","Europe","Income",0,"Mother_Edu","21.1173194031831","24.6571320152322"
"665","Latvia","LVA","LV","2011","Europe","Income",0,"Mother_Occ","31.5065649922704","27.6937661895662"
"666","Latvia","LVA","LV","2011","Europe","Income",0,"Sex","2.5773222049134","1.80517314397241"
"667","Latvia","LVA","LV","2019","Europe","Income",1,"Birth_Area","1.87196007913711","3.60748902075964"
"668","Latvia","LVA","LV","2019","Europe","Income",1,"Father_Edu","20.9412618225792","22.1135261120602"
"669","Latvia","LVA","LV","2019","Europe","Income",1,"Father_Occ","29.6440304034789","25.6207721939722"
"670","Latvia","LVA","LV","2019","Europe","Income",1,"Mother_Edu","16.4362992630546","21.3429947758826"
"671","Latvia","LVA","LV","2019","Europe","Income",1,"Mother_Occ","27.6091183382391","23.6545887844155"
"672","Latvia","LVA","LV","2019","Europe","Income",1,"Sex","3.49733009351104","3.66062911290983"
"673","Mexico","MEX","MEX","2017","North America","Income",1,"Birth_Area","3.88896114821295","6.46067877001996"
"674","Mexico","MEX","MEX","2017","North America","Income",1,"Ethnicity","5.15844932550085","2.55117450466924"
"675","Mexico","MEX","MEX","2017","North America","Income",1,"Father_Edu","24.543332286627","23.3854571273927"
"676","Mexico","MEX","MEX","2017","North America","Income",1,"Father_Occ","21.023693107268","18.0274674687645"
"677","Mexico","MEX","MEX","2017","North America","Income",1,"Mother_Edu","24.079868348887","23.1041978277272"
"678","Mexico","MEX","MEX","2017","North America","Income",1,"Mother_Occ","10.9551069815826","16.8953987876108"
"679","Mexico","MEX","MEX","2017","North America","Income",1,"Sex","10.3505888019217","9.57562551381563"
"680","Mali","MLI","MLI","2019","Africa","Consumption",1,"Ethnicity","2.67078360504873","2.91648848990833"
"681","Mali","MLI","MLI","2019","Africa","Consumption",1,"Father_Edu","21.8062591318884","25.9154448320712"
"682","Mali","MLI","MLI","2019","Africa","Consumption",1,"Father_Occ","46.6823773167798","39.0383787449523"
"683","Mali","MLI","MLI","2019","Africa","Consumption",1,"Mother_Edu","6.62054201507588","8.42639888631954"
"684","Mali","MLI","MLI","2019","Africa","Consumption",1,"Mother_Occ","19.2057970731127","19.2740349792541"
"685","Mali","MLI","MLI","2019","Africa","Consumption",1,"Sex","3.01424085809457","4.42925406749444"
"686","Malta","MLT","MT","2011","Europe","Income",0,"Birth_Area","0.771336993567319","2.44772606818915"
"687","Malta","MLT","MT","2011","Europe","Income",0,"Father_Edu","27.3912264461071","29.0240252665904"
"688","Malta","MLT","MT","2011","Europe","Income",0,"Father_Occ","36.2006862649334","30.8501485604099"
"689","Malta","MLT","MT","2011","Europe","Income",0,"Mother_Edu","20.4272265893277","21.4181331010706"
"690","Malta","MLT","MT","2011","Europe","Income",0,"Mother_Occ","8.71029683029602","8.28068299699102"
"691","Malta","MLT","MT","2011","Europe","Income",0,"Sex","6.49922687576851","7.97928400674898"
"692","Malta","MLT","MT","2019","Europe","Income",1,"Birth_Area","3.46316994173273","8.29220027461037"
"693","Malta","MLT","MT","2019","Europe","Income",1,"Father_Edu","22.6654083578288","22.0117332843239"
"694","Malta","MLT","MT","2019","Europe","Income",1,"Father_Occ","31.1544892889252","30.0689850403173"
"695","Malta","MLT","MT","2019","Europe","Income",1,"Mother_Edu","21.4750575261622","20.0291418089317"
"696","Malta","MLT","MT","2019","Europe","Income",1,"Mother_Occ","19.2039934394298","16.0480981263443"
"697","Malta","MLT","MT","2019","Europe","Income",1,"Sex","2.03788144592136","3.54984146547243"
"698","Mongolia","MNG","MNG","2016","Asia + Oceania","Income",1,"Birth_Area","30.311280348282","9.83232557015398"
"699","Mongolia","MNG","MNG","2016","Asia + Oceania","Income",1,"Ethnicity","5.46410953631441","9.47659653619899"
"700","Mongolia","MNG","MNG","2016","Asia + Oceania","Income",1,"Father_Edu","26.6541210079924","13.1228191342376"
"701","Mongolia","MNG","MNG","2016","Asia + Oceania","Income",1,"Father_Occ","7.08734068735202","23.883622411376"
"702","Mongolia","MNG","MNG","2016","Asia + Oceania","Income",1,"Mother_Edu","13.3749167723954","18.4113241057018"
"703","Mongolia","MNG","MNG","2016","Asia + Oceania","Income",1,"Mother_Occ","11.0965260603968","21.636600680227"
"704","Mongolia","MNG","MNG","2016","Asia + Oceania","Income",1,"Sex","6.01170558726686","3.63671156210459"
"705","Malawi","MWI","MWI","2020","Africa","Consumption",1,"Birth_Area","16.4406879662914","16.9004308870658"
"706","Malawi","MWI","MWI","2020","Africa","Consumption",1,"Ethnicity","6.61498150703961","9.62113978850818"
"707","Malawi","MWI","MWI","2020","Africa","Consumption",1,"Father_Edu","43.76216766166","39.5836412135389"
"708","Malawi","MWI","MWI","2020","Africa","Consumption",1,"Mother_Edu","29.274263749804","29.909228527714"
"709","Malawi","MWI","MWI","2020","Africa","Consumption",1,"Sex","3.90789911520493","3.98555958317321"
"710","Niger","NER","NER","2018","Africa","Consumption",1,"Ethnicity","0","0"
"711","Niger","NER","NER","2018","Africa","Consumption",1,"Father_Edu","21.8652592436435","19.5990224925683"
"712","Niger","NER","NER","2018","Africa","Consumption",1,"Father_Occ","23.2760297199236","24.9149891944954"
"713","Niger","NER","NER","2018","Africa","Consumption",1,"Mother_Edu","15.9902698629708","13.1341210518378"
"714","Niger","NER","NER","2018","Africa","Consumption",1,"Mother_Occ","37.7895725649407","37.0388229308256"
"715","Niger","NER","NER","2018","Africa","Consumption",1,"Sex","1.39942452610261","5.82895390660906"
"716","Nigeria","NGA","NGA","2019","Africa","Consumption",1,"Birth_Area","39.6335231616129","41.7870335670373"
"717","Nigeria","NGA","NGA","2019","Africa","Consumption",1,"Ethnicity","9.89915207119596","8.99838878312784"
"718","Nigeria","NGA","NGA","2019","Africa","Consumption",1,"Father_Edu","25.9342481581723","24.9723439342632"
"719","Nigeria","NGA","NGA","2019","Africa","Consumption",1,"Mother_Edu","19.3055667048947","19.2673599517149"
"720","Nigeria","NGA","NGA","2019","Africa","Consumption",1,"Sex","5.22750990412407","4.97487376385688"
"721","Netherlands","NLD","NL","2005","Europe","Income",0,"Birth_Area","4.64122492928291","3.07502203845453"
"722","Netherlands","NLD","NL","2005","Europe","Income",0,"Father_Edu","18.6229586239444","22.2059029679758"
"723","Netherlands","NLD","NL","2005","Europe","Income",0,"Father_Occ","25.8295929665631","17.914704475295"
"724","Netherlands","NLD","NL","2005","Europe","Income",0,"Mother_Edu","18.2201926327402","20.752708259299"
"725","Netherlands","NLD","NL","2005","Europe","Income",0,"Mother_Occ","23.5999955152539","26.702258360705"
"726","Netherlands","NLD","NL","2005","Europe","Income",0,"Sex","9.08603533221547","9.3494038982707"
"727","Netherlands","NLD","NL","2011","Europe","Income",0,"Birth_Area","12.4357337358135","12.6095558977636"
"728","Netherlands","NLD","NL","2011","Europe","Income",0,"Father_Edu","20.1420758598675","18.7941759723109"
"729","Netherlands","NLD","NL","2011","Europe","Income",0,"Father_Occ","31.2158952146005","20.7485159158679"
"730","Netherlands","NLD","NL","2011","Europe","Income",0,"Mother_Edu","16.2781116015883","21.5648857657081"
"731","Netherlands","NLD","NL","2011","Europe","Income",0,"Mother_Occ","14.2274043136748","18.0520215633652"
"732","Netherlands","NLD","NL","2011","Europe","Income",0,"Sex","5.7007792744554","8.23084488498418"
"733","Netherlands","NLD","NL","2019","Europe","Income",1,"Birth_Area","9.9712633370202","10.2512224469894"
"734","Netherlands","NLD","NL","2019","Europe","Income",1,"Father_Edu","20.2411773873722","17.8857534542538"
"735","Netherlands","NLD","NL","2019","Europe","Income",1,"Father_Occ","30.474801988783","19.4096119387377"
"736","Netherlands","NLD","NL","2019","Europe","Income",1,"Mother_Edu","15.2695228824315","14.076107243044"
"737","Netherlands","NLD","NL","2019","Europe","Income",1,"Mother_Occ","21.0758347130192","28.1260824699857"
"738","Netherlands","NLD","NL","2019","Europe","Income",1,"Sex","2.96739969137376","10.2512224469894"
"739","Norway","NOR","NO","2005","Europe","Income",0,"Birth_Area","0.539460322832861","5.80924042042964"
"740","Norway","NOR","NO","2005","Europe","Income",0,"Father_Edu","22.1198491507257","22.4523362691135"
"741","Norway","NOR","NO","2005","Europe","Income",0,"Father_Occ","19.3727572226659","17.8267752244838"
"742","Norway","NOR","NO","2005","Europe","Income",0,"Mother_Edu","26.3429904729669","14.4654350441419"
"743","Norway","NOR","NO","2005","Europe","Income",0,"Mother_Occ","23.2678875684224","23.270361534241"
"744","Norway","NOR","NO","2005","Europe","Income",0,"Sex","8.35705526238621","16.1758515075902"
"745","Norway","NOR","NO","2011","Europe","Income",0,"Birth_Area","7.51811589924803","11.7301614894408"
"746","Norway","NOR","NO","2011","Europe","Income",0,"Father_Edu","24.09313728963","26.0267933663417"
"747","Norway","NOR","NO","2011","Europe","Income",0,"Father_Occ","20.7296995074909","18.3655937731145"
"748","Norway","NOR","NO","2011","Europe","Income",0,"Mother_Edu","20.1377344578343","16.8269428087844"
"749","Norway","NOR","NO","2011","Europe","Income",0,"Mother_Occ","20.057011951063","16.2820039255841"
"750","Norway","NOR","NO","2011","Europe","Income",0,"Sex","7.46430089473379","10.7685046367344"
"751","Norway","NOR","NO","2019","Europe","Income",1,"Birth_Area","23.985594346402","14.0243847231292"
"752","Norway","NOR","NO","2019","Europe","Income",1,"Father_Edu","12.611929729113","12.2205191655218"
"753","Norway","NOR","NO","2019","Europe","Income",1,"Father_Occ","19.4973320759023","24.2759305329119"
"754","Norway","NOR","NO","2019","Europe","Income",1,"Mother_Edu","15.3660906678287","21.0620010535128"
"755","Norway","NOR","NO","2019","Europe","Income",1,"Mother_Occ","25.031155443507","22.1671862895117"
"756","Norway","NOR","NO","2019","Europe","Income",1,"Sex","3.50789773724704","6.24997823541287"
"757","Nepal","NPL","NPL","2003","Asia + Oceania","Income",0,"Birth_Area","42.1388849262426","37.5944568967754"
"758","Nepal","NPL","NPL","2003","Asia + Oceania","Income",0,"Ethnicity","9.11795615417603","9.33226450610803"
"759","Nepal","NPL","NPL","2003","Asia + Oceania","Income",0,"Father_Edu","36.5169264073195","38.0328569855655"
"760","Nepal","NPL","NPL","2003","Asia + Oceania","Income",0,"Mother_Edu","11.2181130721646","13.8916254295249"
"761","Nepal","NPL","NPL","2003","Asia + Oceania","Income",0,"Sex","1.00811944009703","1.14879618202654"
"762","Nepal","NPL","NPL","2011","Asia + Oceania","Income",1,"Birth_Area","43.4766475417711","23.7733880587732"
"763","Nepal","NPL","NPL","2011","Asia + Oceania","Income",1,"Ethnicity","8.6516090920649","9.60989626070207"
"764","Nepal","NPL","NPL","2011","Asia + Oceania","Income",1,"Father_Edu","30.9046742018192","38.6809282064616"
"765","Nepal","NPL","NPL","2011","Asia + Oceania","Income",1,"Mother_Edu","15.4082043897395","26.2446915057162"
"766","Nepal","NPL","NPL","2011","Asia + Oceania","Income",1,"Sex","1.55886477460544","1.69109596834713"
"767","Panama","PAN","PAN","2003","LATAM","Income",1,"Birth_Area","21.977746402638","19.7893355821205"
"768","Panama","PAN","PAN","2003","LATAM","Income",1,"Ethnicity","2.76535277701203","3.77883982327924"
"769","Panama","PAN","PAN","2003","LATAM","Income",1,"Father_Edu","36.2329315125608","34.3017732582631"
"770","Panama","PAN","PAN","2003","LATAM","Income",1,"Mother_Edu","37.5171824233648","37.5787753141663"
"771","Panama","PAN","PAN","2003","LATAM","Income",1,"Sex","1.50678688442423","4.55127602217071"
"772","Peru","PER","PER","2001","LATAM","Income",0,"Birth_Area","23.5234549045699","20.4308165217727"
"773","Peru","PER","PER","2001","LATAM","Income",0,"Ethnicity","8.93456090508005","10.8514844494147"
"774","Peru","PER","PER","2001","LATAM","Income",0,"Father_Edu","33.6092787345422","30.7704130443177"
"775","Peru","PER","PER","2001","LATAM","Income",0,"Mother_Edu","32.1345890883843","32.6203898731066"
"776","Peru","PER","PER","2001","LATAM","Income",0,"Sex","1.79811636742342","5.32689611138813"
"777","Peru","PER","PER","2006","LATAM","Income",0,"Birth_Area","23.4001404985243","20.9529504497293"
"778","Peru","PER","PER","2006","LATAM","Income",0,"Ethnicity","9.14306722661403","9.51258176938585"
"779","Peru","PER","PER","2006","LATAM","Income",0,"Father_Edu","31.9494851237765","31.4006624116047"
"780","Peru","PER","PER","2006","LATAM","Income",0,"Mother_Edu","33.3702931130733","32.5670340558047"
"781","Peru","PER","PER","2006","LATAM","Income",0,"Sex","2.13701403801205","5.56677131347565"
"782","Peru","PER","PER","2007","LATAM","Income",0,"Birth_Area","22.0623883208023","20.449318201421"
"783","Peru","PER","PER","2007","LATAM","Income",0,"Ethnicity","8.03714414405691","9.46055784058055"
"784","Peru","PER","PER","2007","LATAM","Income",0,"Father_Edu","33.051756745515","31.3404006923873"
"785","Peru","PER","PER","2007","LATAM","Income",0,"Mother_Edu","34.2058913289325","34.0998005163318"
"786","Peru","PER","PER","2007","LATAM","Income",0,"Sex","2.64281946069333","4.64992274927926"
"787","Peru","PER","PER","2008","LATAM","Income",0,"Birth_Area","24.171410280295","22.1857844451592"
"788","Peru","PER","PER","2008","LATAM","Income",0,"Ethnicity","8.50768091452865","9.45305952190171"
"789","Peru","PER","PER","2008","LATAM","Income",0,"Father_Edu","32.8548680926895","30.7273207478444"
"790","Peru","PER","PER","2008","LATAM","Income",0,"Mother_Edu","32.5198150581277","33.5391308350637"
"791","Peru","PER","PER","2008","LATAM","Income",0,"Sex","1.94622565435917","4.09470445003086"
"792","Peru","PER","PER","2009","LATAM","Income",0,"Birth_Area","23.5500359456854","21.797039061841"
"793","Peru","PER","PER","2009","LATAM","Income",0,"Ethnicity","9.01179350144989","9.66011370571493"
"794","Peru","PER","PER","2009","LATAM","Income",0,"Father_Edu","32.4533006983568","31.6392837697701"
"795","Peru","PER","PER","2009","LATAM","Income",0,"Mother_Edu","32.7068746944772","32.9663280000527"
"796","Peru","PER","PER","2009","LATAM","Income",0,"Sex","2.27799516003072","3.93723546262131"
"797","Peru","PER","PER","2010","LATAM","Income",0,"Birth_Area","23.3827980464221","22.0458652298802"
"798","Peru","PER","PER","2010","LATAM","Income",0,"Ethnicity","7.50966875167218","9.32296373104072"
"799","Peru","PER","PER","2010","LATAM","Income",0,"Father_Edu","32.8951105017458","31.0000676210456"
"800","Peru","PER","PER","2010","LATAM","Income",0,"Mother_Edu","34.0805354581844","34.4854058935564"
"801","Peru","PER","PER","2010","LATAM","Income",0,"Sex","2.1318872419755","3.14569752447723"
"802","Peru","PER","PER","2011","LATAM","Income",0,"Birth_Area","22.9713056719693","20.8091762119833"
"803","Peru","PER","PER","2011","LATAM","Income",0,"Ethnicity","7.93433364783298","9.14062069135512"
"804","Peru","PER","PER","2011","LATAM","Income",0,"Father_Edu","33.7077036972027","31.1291047126393"
"805","Peru","PER","PER","2011","LATAM","Income",0,"Mother_Edu","33.6174818650579","34.0609025821439"
"806","Peru","PER","PER","2011","LATAM","Income",0,"Sex","1.76917511793708","4.8601958018785"
"807","Peru","PER","PER","2012","LATAM","Income",0,"Birth_Area","22.7301821710027","22.2706582138145"
"808","Peru","PER","PER","2012","LATAM","Income",0,"Ethnicity","11.1176426201316","10.5921426609925"
"809","Peru","PER","PER","2012","LATAM","Income",0,"Father_Edu","32.1190439355367","30.2830068589152"
"810","Peru","PER","PER","2012","LATAM","Income",0,"Mother_Edu","32.0881595218376","32.0273927262987"
"811","Peru","PER","PER","2012","LATAM","Income",0,"Sex","1.94497175149148","4.82679953997909"
"812","Peru","PER","PER","2013","LATAM","Income",0,"Birth_Area","23.6776539703332","22.2691062147926"
"813","Peru","PER","PER","2013","LATAM","Income",0,"Ethnicity","11.1303639539022","10.4894349211628"
"814","Peru","PER","PER","2013","LATAM","Income",0,"Father_Edu","32.0528155330249","30.4888277071534"
"815","Peru","PER","PER","2013","LATAM","Income",0,"Mother_Edu","31.1874851870641","32.6595288054882"
"816","Peru","PER","PER","2013","LATAM","Income",0,"Sex","1.95168135567557","4.09310235140307"
"817","Peru","PER","PER","2014","LATAM","Income",0,"Birth_Area","22.8661911138216","21.8682986616211"
"818","Peru","PER","PER","2014","LATAM","Income",0,"Ethnicity","11.4884693387813","11.1881489916063"
"819","Peru","PER","PER","2014","LATAM","Income",0,"Father_Edu","31.7569791675416","30.2494515361832"
"820","Peru","PER","PER","2014","LATAM","Income",0,"Mother_Edu","31.9434991966406","32.6066507821538"
"821","Peru","PER","PER","2014","LATAM","Income",0,"Sex","1.94486118321474","4.08745002843557"
"822","Peru","PER","PER","2015","LATAM","Income",1,"Birth_Area","23.1023264100471","21.305071732866"
"823","Peru","PER","PER","2015","LATAM","Income",1,"Ethnicity","11.6886793437291","10.6298139179749"
"824","Peru","PER","PER","2015","LATAM","Income",1,"Father_Edu","31.5714953768096","31.3506896766376"
"825","Peru","PER","PER","2015","LATAM","Income",1,"Mother_Edu","31.6929171541109","32.9247893544366"
"826","Peru","PER","PER","2015","LATAM","Income",1,"Sex","1.94458171530334","3.78963531808481"
"827","Poland","POL","PL","2005","Europe","Income",0,"Birth_Area","0","0"
"828","Poland","POL","PL","2005","Europe","Income",0,"Father_Edu","23.7635044041319","24.4786823349417"
"829","Poland","POL","PL","2005","Europe","Income",0,"Father_Occ","25.7123185764835","24.3462752897167"
"830","Poland","POL","PL","2005","Europe","Income",0,"Mother_Edu","21.5555993302538","21.8907264509985"
"831","Poland","POL","PL","2005","Europe","Income",0,"Mother_Occ","27.8526347195286","26.6934910914326"
"832","Poland","POL","PL","2005","Europe","Income",0,"Sex","1.85342599243363","3.30559210305301"
"833","Poland","POL","PL","2011","Europe","Income",0,"Birth_Area","0","0"
"834","Poland","POL","PL","2011","Europe","Income",0,"Father_Edu","19.3457377405022","19.6881660649466"
"835","Poland","POL","PL","2011","Europe","Income",0,"Father_Occ","28.0215667412369","27.3159709184472"
"836","Poland","POL","PL","2011","Europe","Income",0,"Mother_Edu","17.5700743543554","20.8878790613224"
"837","Poland","POL","PL","2011","Europe","Income",0,"Mother_Occ","32.5697571689111","28.5749290010638"
"838","Poland","POL","PL","2011","Europe","Income",0,"Sex","3.17785532979723","4.19557601298213"
"839","Poland","POL","PL","2019","Europe","Income",1,"Birth_Area","0","0"
"840","Poland","POL","PL","2019","Europe","Income",1,"Father_Edu","15.7880205935322","17.2430112155111"
"841","Poland","POL","PL","2019","Europe","Income",1,"Father_Occ","28.7437430836714","28.2758925791054"
"842","Poland","POL","PL","2019","Europe","Income",1,"Mother_Edu","18.458415521686","19.1531817202529"
"843","Poland","POL","PL","2019","Europe","Income",1,"Mother_Occ","34.8425805324868","32.392639356566"
"844","Poland","POL","PL","2019","Europe","Income",1,"Sex","3.29746367152306","3.82241672098977"
"845","Portugal","PRT","PT","2005","Europe","Income",0,"Birth_Area","0.975058237105613","4.28413272976738"
"846","Portugal","PRT","PT","2005","Europe","Income",0,"Father_Edu","25.0206509332734","22.2766130990111"
"847","Portugal","PRT","PT","2005","Europe","Income",0,"Father_Occ","25.1445972873774","23.7969898857479"
"848","Portugal","PRT","PT","2005","Europe","Income",0,"Mother_Edu","22.8061427399494","23.374211314035"
"849","Portugal","PRT","PT","2005","Europe","Income",0,"Mother_Occ","24.7727582250655","24.6018952434321"
"850","Portugal","PRT","PT","2005","Europe","Income",0,"Sex","1.28079257722871","1.66615772800667"
"851","Portugal","PRT","PT","2011","Europe","Income",0,"Birth_Area","3.44383221753118","3.35471220135359"
"852","Portugal","PRT","PT","2011","Europe","Income",0,"Father_Edu","21.1280295092611","19.676236619087"
"853","Portugal","PRT","PT","2011","Europe","Income",0,"Father_Occ","27.2556844978849","28.4070709520469"
"854","Portugal","PRT","PT","2011","Europe","Income",0,"Mother_Edu","25.9011502372418","22.274943779368"
"855","Portugal","PRT","PT","2011","Europe","Income",0,"Mother_Occ","21.063527877802","24.5449607059376"
"856","Portugal","PRT","PT","2011","Europe","Income",0,"Sex","1.207775660279","1.74207574220687"
"857","Portugal","PRT","PT","2019","Europe","Income",1,"Birth_Area","1.91223174792047","2.06588880858984"
"858","Portugal","PRT","PT","2019","Europe","Income",1,"Father_Edu","17.1130193196708","20.1079644600237"
"859","Portugal","PRT","PT","2019","Europe","Income",1,"Father_Occ","37.8188229451381","31.2344608398231"
"860","Portugal","PRT","PT","2019","Europe","Income",1,"Mother_Edu","14.6580797281483","16.1829059545015"
"861","Portugal","PRT","PT","2019","Europe","Income",1,"Mother_Occ","26.3376408150886","28.430847621593"
"862","Portugal","PRT","PT","2019","Europe","Income",1,"Sex","2.16020544403385","1.9779323154689"
"863","Romania","ROU","RO","2011","Europe","Income",0,"Father_Edu","17.4494828669908","17.3269152814333"
"864","Romania","ROU","RO","2011","Europe","Income",0,"Father_Occ","30.1516630550999","28.3134522311502"
"865","Romania","ROU","RO","2011","Europe","Income",0,"Mother_Edu","19.818540283027","20.8306345971283"
"866","Romania","ROU","RO","2011","Europe","Income",0,"Mother_Occ","31.1093671169018","31.0776930983065"
"867","Romania","ROU","RO","2011","Europe","Income",0,"Sex","1.4709466779805","2.59896951470547"
"868","Romania","ROU","RO","2019","Europe","Income",1,"Father_Edu","17.5835051285824","16.4767252641643"
"869","Romania","ROU","RO","2019","Europe","Income",1,"Father_Occ","30.0957908264362","28.0383758512651"
"870","Romania","ROU","RO","2019","Europe","Income",1,"Mother_Edu","17.2492074190978","17.0795827590631"
"871","Romania","ROU","RO","2019","Europe","Income",1,"Mother_Occ","33.1522270274386","37.4693794016002"
"872","Romania","ROU","RO","2019","Europe","Income",1,"Sex","1.91926959844495","1.05018005223265"
"873","Senegal","SEN","SEN","2018","Africa","Consumption",1,"Ethnicity","2.14206270907622","2.51842684236955"
"874","Senegal","SEN","SEN","2018","Africa","Consumption",1,"Father_Edu","26.8281484867991","26.5102292678265"
"875","Senegal","SEN","SEN","2018","Africa","Consumption",1,"Father_Occ","28.478671663798","29.4602877843821"
"876","Senegal","SEN","SEN","2018","Africa","Consumption",1,"Mother_Edu","16.609257164858","17.6751050371219"
"877","Senegal","SEN","SEN","2018","Africa","Consumption",1,"Mother_Occ","19.4079703780301","18.8792105540834"
"878","Senegal","SEN","SEN","2018","Africa","Consumption",1,"Sex","6.53388959743855","4.9567405142165"
"879","Sierra Leone","SLE","SRL","2011","Africa","Consumption",0,"Birth_Area","0","0.0214152056164277"
"880","Sierra Leone","SLE","SRL","2011","Africa","Consumption",0,"Ethnicity","9.20162477773312","13.551449584803"
"881","Sierra Leone","SLE","SRL","2011","Africa","Consumption",0,"Father_Edu","16.6102652923607","15.553651981723"
"882","Sierra Leone","SLE","SRL","2011","Africa","Consumption",0,"Father_Occ","31.1269339447134","27.289504992241"
"883","Sierra Leone","SLE","SRL","2011","Africa","Consumption",0,"Mother_Edu","13.9435425940327","16.9404588367325"
"884","Sierra Leone","SLE","SRL","2011","Africa","Consumption",0,"Mother_Occ","26.5789595973831","24.4898886536905"
"885","Sierra Leone","SLE","SRL","2011","Africa","Consumption",0,"Sex","2.54936379208589","2.15363074519355"
"886","Sierra Leone","SLE","SRL","2018","Africa","Consumption",1,"Birth_Area","0.0195664228904823","0"
"887","Sierra Leone","SLE","SRL","2018","Africa","Consumption",1,"Ethnicity","16.9292446940917","17.4626081098259"
"888","Sierra Leone","SLE","SRL","2018","Africa","Consumption",1,"Father_Edu","14.2592954933757","16.0641739962335"
"889","Sierra Leone","SLE","SRL","2018","Africa","Consumption",1,"Father_Occ","23.2284754923177","23.6872170966433"
"890","Sierra Leone","SLE","SRL","2018","Africa","Consumption",1,"Mother_Edu","8.93095531359187","11.3852027139131"
"891","Sierra Leone","SLE","SRL","2018","Africa","Consumption",1,"Mother_Occ","28.1638361360654","26.936210638749"
"892","Sierra Leone","SLE","SRL","2018","Africa","Consumption",1,"Sex","8.468626447667","4.5086921102331"
"893","Slovakia","SVK","SK","2005","Europe","Income",0,"Birth_Area","0","0"
"894","Slovakia","SVK","SK","2005","Europe","Income",0,"Father_Edu","17.796009554238","19.6391443560405"
"895","Slovakia","SVK","SK","2005","Europe","Income",0,"Father_Occ","25.4105184174083","20.0691254054467"
"896","Slovakia","SVK","SK","2005","Europe","Income",0,"Mother_Edu","13.9801994947167","16.9844787466626"
"897","Slovakia","SVK","SK","2005","Europe","Income",0,"Mother_Occ","36.7039472931215","35.9223397487737"
"898","Slovakia","SVK","SK","2005","Europe","Income",0,"Sex","6.96458458707671","7.48750600325449"
"899","Slovakia","SVK","SK","2011","Europe","Income",0,"Birth_Area","0","0"
"900","Slovakia","SVK","SK","2011","Europe","Income",0,"Father_Edu","20.3210225764865","19.8814044193518"
"901","Slovakia","SVK","SK","2011","Europe","Income",0,"Father_Occ","24.9568340735151","21.3566607853099"
"902","Slovakia","SVK","SK","2011","Europe","Income",0,"Mother_Edu","20.7804273194352","22.3695233649231"
"903","Slovakia","SVK","SK","2011","Europe","Income",0,"Mother_Occ","30.9290957318492","32.2559428920163"
"904","Slovakia","SVK","SK","2011","Europe","Income",0,"Sex","4.15832843819759","4.99672824938515"
"905","Slovakia","SVK","SK","2019","Europe","Income",1,"Birth_Area","0","0"
"906","Slovakia","SVK","SK","2019","Europe","Income",1,"Father_Edu","20.1831916182981","21.5852310590715"
"907","Slovakia","SVK","SK","2019","Europe","Income",1,"Father_Occ","24.1299297289056","21.3543959070813"
"908","Slovakia","SVK","SK","2019","Europe","Income",1,"Mother_Edu","21.604765534915","25.1898107401479"
"909","Slovakia","SVK","SK","2019","Europe","Income",1,"Mother_Occ","29.9658647550173","28.2616939166318"
"910","Slovakia","SVK","SK","2019","Europe","Income",1,"Sex","5.03220645435426","4.43240361119047"
"911","Slovenia","SVN","SI","2005","Europe","Income",0,"Birth_Area","2.88795866461122","1.68854757069628"
"912","Slovenia","SVN","SI","2005","Europe","Income",0,"Father_Edu","20.6055478621151","23.8643231193996"
"913","Slovenia","SVN","SI","2005","Europe","Income",0,"Father_Occ","26.0934272804926","24.6365413218182"
"914","Slovenia","SVN","SI","2005","Europe","Income",0,"Mother_Edu","21.5349467958725","22.3344568693248"
"915","Slovenia","SVN","SI","2005","Europe","Income",0,"Mother_Occ","26.5064934732737","26.1372672623678"
"916","Slovenia","SVN","SI","2005","Europe","Income",0,"Sex","2.37162592363484","1.33886385639346"
"917","Slovenia","SVN","SI","2011","Europe","Income",0,"Birth_Area","10.2438559485547","12.8752351491129"
"918","Slovenia","SVN","SI","2011","Europe","Income",0,"Father_Edu","17.8194788468407","18.2401107464514"
"919","Slovenia","SVN","SI","2011","Europe","Income",0,"Father_Occ","26.1453445925414","21.9557136336542"
"920","Slovenia","SVN","SI","2011","Europe","Income",0,"Mother_Edu","15.8249307890794","16.4581379332013"
"921","Slovenia","SVN","SI","2011","Europe","Income",0,"Mother_Occ","26.9504832580597","28.3442757407322"
"922","Slovenia","SVN","SI","2011","Europe","Income",0,"Sex","3.01590656492434","2.12652679684807"
"923","Slovenia","SVN","SI","2019","Europe","Income",1,"Birth_Area","8.15460295670715","8.95513060848802"
"924","Slovenia","SVN","SI","2019","Europe","Income",1,"Father_Edu","17.3469680547921","18.5945506812113"
"925","Slovenia","SVN","SI","2019","Europe","Income",1,"Father_Occ","23.536051415055","24.0486499018462"
"926","Slovenia","SVN","SI","2019","Europe","Income",1,"Mother_Edu","20.7152895618521","19.5337762267587"
"927","Slovenia","SVN","SI","2019","Europe","Income",1,"Mother_Occ","27.2030418242189","24.7077555478444"
"928","Slovenia","SVN","SI","2019","Europe","Income",1,"Sex","3.04404618737474","4.1601370338513"
"929","Sweden","SWE","SE","2019","Europe","Income",1,"Birth_Area","18.86978776172","20.6663479400891"
"930","Sweden","SWE","SE","2019","Europe","Income",1,"Father_Edu","5.48065403487651","17.2505617430787"
"931","Sweden","SWE","SE","2019","Europe","Income",1,"Father_Occ","12.2725964163117","15.1339420910851"
"932","Sweden","SWE","SE","2019","Europe","Income",1,"Mother_Edu","9.75300488771479","20.2868161404213"
"933","Sweden","SWE","SE","2019","Europe","Income",1,"Mother_Occ","46.6339823352928","21.3670220317835"
"934","Sweden","SWE","SE","2019","Europe","Income",1,"Sex","6.98997456408432","5.29531005354242"
"935","Togo","TGO","TGO","2018","Africa","Consumption",1,"Ethnicity","31.4469893015855","26.1869505193002"
"936","Togo","TGO","TGO","2018","Africa","Consumption",1,"Father_Edu","24.2931278130856","25.6263652772162"
"937","Togo","TGO","TGO","2018","Africa","Consumption",1,"Father_Occ","14.6928680953577","18.5417276488097"
"938","Togo","TGO","TGO","2018","Africa","Consumption",1,"Mother_Edu","13.7291354596013","16.6859971922558"
"939","Togo","TGO","TGO","2018","Africa","Consumption",1,"Mother_Occ","8.91047228081898","7.55232385140428"
"940","Togo","TGO","TGO","2018","Africa","Consumption",1,"Sex","6.92740704955092","5.40663551101377"
"941","Tajikistan","TJK","TJK","2016","Asia + Oceania","Income",1,"Birth_Area","6.31217750778431","12.6511204155388"
"942","Tajikistan","TJK","TJK","2016","Asia + Oceania","Income",1,"Ethnicity","2.49156642727581","5.39538288565072"
"943","Tajikistan","TJK","TJK","2016","Asia + Oceania","Income",1,"Father_Edu","31.7030282679164","22.3796653547161"
"944","Tajikistan","TJK","TJK","2016","Asia + Oceania","Income",1,"Father_Occ","20.9320066239737","19.1368170416569"
"945","Tajikistan","TJK","TJK","2016","Asia + Oceania","Income",1,"Mother_Edu","14.1930689985749","12.21729455426"
"946","Tajikistan","TJK","TJK","2016","Asia + Oceania","Income",1,"Mother_Occ","18.2110548212499","21.0348051847517"
"947","Tajikistan","TJK","TJK","2016","Asia + Oceania","Income",1,"Sex","6.15709735322493","7.18491456342582"
"948","Timor Leste","TLS","TIM","2007","Asia + Oceania","Consumption",0,"Birth_Area","30.1589170814544","22.0862609864409"
"949","Timor Leste","TLS","TIM","2007","Asia + Oceania","Consumption",0,"Ethnicity","53.9335001472654","59.9181063391556"
"950","Timor Leste","TLS","TIM","2007","Asia + Oceania","Consumption",0,"Father_Edu","9.7052281581695","10.5530576459047"
"951","Timor Leste","TLS","TIM","2007","Asia + Oceania","Consumption",0,"Mother_Edu","3.44081420749548","3.79474740813815"
"952","Timor Leste","TLS","TIM","2007","Asia + Oceania","Consumption",0,"Sex","2.76154040561517","3.64782762036062"
"953","Timor Leste","TLS","TIM","2014","Asia + Oceania","Consumption",1,"Birth_Area","28.6858932489359","25.7667655524685"
"954","Timor Leste","TLS","TIM","2014","Asia + Oceania","Consumption",1,"Ethnicity","48.356433022281","46.8318936068224"
"955","Timor Leste","TLS","TIM","2014","Asia + Oceania","Consumption",1,"Father_Edu","14.0294126335023","14.0390169548318"
"956","Timor Leste","TLS","TIM","2014","Asia + Oceania","Consumption",1,"Mother_Edu","6.23833609582446","8.43658928080147"
"957","Timor Leste","TLS","TIM","2014","Asia + Oceania","Consumption",1,"Sex","2.68992499945634","4.92573460507581"
"958","Tanzania","TZA","TZN","2009","Africa","Consumption",0,"Birth_Area","45.1419384821193","42.3577263861261"
"959","Tanzania","TZA","TZN","2009","Africa","Consumption",0,"Ethnicity","17.1630731940466","16.8749903111964"
"960","Tanzania","TZA","TZN","2009","Africa","Consumption",0,"Father_Edu","17.4233417083542","18.4702177701407"
"961","Tanzania","TZA","TZN","2009","Africa","Consumption",0,"Mother_Edu","16.5991580797133","16.7113772384842"
"962","Tanzania","TZA","TZN","2009","Africa","Consumption",0,"Sex","3.67248853576653","5.58568829405263"
"963","Tanzania","TZA","TZN","2011","Africa","Consumption",0,"Birth_Area","41.8739697679704","38.7541654436508"
"964","Tanzania","TZA","TZN","2011","Africa","Consumption",0,"Ethnicity","14.2395951500719","17.1314602102411"
"965","Tanzania","TZA","TZN","2011","Africa","Consumption",0,"Father_Edu","19.4940184929117","20.173850896349"
"966","Tanzania","TZA","TZN","2011","Africa","Consumption",0,"Mother_Edu","20.8951980510023","20.644697073961"
"967","Tanzania","TZA","TZN","2011","Africa","Consumption",0,"Sex","3.49721853804372","3.29582637579804"
"968","Tanzania","TZA","TZN","2013","Africa","Consumption",1,"Birth_Area","35.6267950394551","37.1892440439551"
"969","Tanzania","TZA","TZN","2013","Africa","Consumption",1,"Ethnicity","13.3676974541848","15.3411598680322"
"970","Tanzania","TZA","TZN","2013","Africa","Consumption",1,"Father_Edu","27.1196074651217","24.6432064402498"
"971","Tanzania","TZA","TZN","2013","Africa","Consumption",1,"Mother_Edu","22.246558272057","20.3830254470913"
"972","Tanzania","TZA","TZN","2013","Africa","Consumption",1,"Sex","1.6393417691815","2.44336420067161"
"973","Uganda","UGA","UGA","2010","Africa","Consumption",0,"Ethnicity","15.783341237274","14.2459210919996"
"974","Uganda","UGA","UGA","2010","Africa","Consumption",0,"Father_Edu","34.2281645391374","33.2886971440271"
"975","Uganda","UGA","UGA","2010","Africa","Consumption",0,"Father_Occ","9.09354095732825","9.55018163956954"
"976","Uganda","UGA","UGA","2010","Africa","Consumption",0,"Mother_Edu","32.0970647269663","32.959171568418"
"977","Uganda","UGA","UGA","2010","Africa","Consumption",0,"Mother_Occ","7.46278631844951","8.6503233369446"
"978","Uganda","UGA","UGA","2010","Africa","Consumption",0,"Sex","1.33510222084452","1.30570521904112"
"979","Uganda","UGA","UGA","2011","Africa","Consumption",0,"Ethnicity","14.9346999166229","15.3136281786067"
"980","Uganda","UGA","UGA","2011","Africa","Consumption",0,"Father_Edu","35.2454465028502","30.3815567956381"
"981","Uganda","UGA","UGA","2011","Africa","Consumption",0,"Father_Occ","5.85699482353656","12.0093069123115"
"982","Uganda","UGA","UGA","2011","Africa","Consumption",0,"Mother_Edu","37.5052507386215","27.6698887513857"
"983","Uganda","UGA","UGA","2011","Africa","Consumption",0,"Mother_Occ","5.43362517352588","13.1610669476022"
"984","Uganda","UGA","UGA","2011","Africa","Consumption",0,"Sex","1.02398284484309","1.46455241445581"
"985","Uganda","UGA","UGA","2012","Africa","Consumption",0,"Ethnicity","17.1608842564864","15.3388631202918"
"986","Uganda","UGA","UGA","2012","Africa","Consumption",0,"Father_Edu","31.9168094382477","22.5029668000507"
"987","Uganda","UGA","UGA","2012","Africa","Consumption",0,"Father_Occ","9.42990910144881","7.64967349264827"
"988","Uganda","UGA","UGA","2012","Africa","Consumption",0,"Mother_Edu","29.4457214891489","29.9507376010807"
"989","Uganda","UGA","UGA","2012","Africa","Consumption",0,"Mother_Occ","8.90039025521336","13.6066830393391"
"990","Uganda","UGA","UGA","2012","Africa","Consumption",0,"Sex","3.14628545945477","10.9510759465894"
"991","Uganda","UGA","UGA","2014","Africa","Consumption",1,"Ethnicity","16.1697607361163","15.8320089486314"
"992","Uganda","UGA","UGA","2014","Africa","Consumption",1,"Father_Edu","25.6191194154351","25.0438734880481"
"993","Uganda","UGA","UGA","2014","Africa","Consumption",1,"Father_Occ","14.5894369569888","14.8365456151949"
"994","Uganda","UGA","UGA","2014","Africa","Consumption",1,"Mother_Edu","29.1544829213182","28.750060052535"
"995","Uganda","UGA","UGA","2014","Africa","Consumption",1,"Mother_Occ","12.1130533030983","12.1258223841446"
"996","Uganda","UGA","UGA","2014","Africa","Consumption",1,"Sex","2.3541466670432","3.41168951144611"
"997","United States of America","USA","USA","1970","North America","Income",0,"Birth_Area","13.4665972245995","15.8007988372367"
"998","United States of America","USA","USA","1970","North America","Income",0,"Ethnicity","5.73840582190755","0"
"999","United States of America","USA","USA","1970","North America","Income",0,"Father_Edu","24.9017191458337","23.710932355987"
"1000","United States of America","USA","USA","1970","North America","Income",0,"Father_Occ","22.9398641053186","23.0163334755725"
"1001","United States of America","USA","USA","1970","North America","Income",0,"Mother_Edu","22.8965081928211","22.974864885697"
"1002","United States of America","USA","USA","1970","North America","Income",0,"Mother_Occ","6.48629531249064","8.5541627564944"
"1003","United States of America","USA","USA","1970","North America","Income",0,"Sex","3.57061019702902","8.75113855840302"
"1004","United States of America","USA","USA","1972","North America","Income",0,"Birth_Area","11.2159250447835","13.5410213836427"
"1005","United States of America","USA","USA","1972","North America","Income",0,"Ethnicity","6.6532199024949","0"
"1006","United States of America","USA","USA","1972","North America","Income",0,"Father_Edu","24.0598865928651","23.5936553557083"
"1007","United States of America","USA","USA","1972","North America","Income",0,"Father_Occ","20.287907868678","22.4341238544169"
"1008","United States of America","USA","USA","1972","North America","Income",0,"Mother_Edu","23.4401280489476","21.9098139581807"
"1009","United States of America","USA","USA","1972","North America","Income",0,"Mother_Occ","6.93104269804406","8.12651341674271"
"1010","United States of America","USA","USA","1972","North America","Income",0,"Sex","7.41188984418689","10.6976484848237"
"1011","United States of America","USA","USA","1974","North America","Income",0,"Birth_Area","11.0259747414498","13.9769466352605"
"1012","United States of America","USA","USA","1974","North America","Income",0,"Ethnicity","6.50061357837108","1.0862930847759"
"1013","United States of America","USA","USA","1974","North America","Income",0,"Father_Edu","23.521374967861","20.926593906244"
"1014","United States of America","USA","USA","1974","North America","Income",0,"Father_Occ","22.2268064759355","22.6224408479672"
"1015","United States of America","USA","USA","1974","North America","Income",0,"Mother_Edu","22.4744630569995","20.6716626666386"
"1016","United States of America","USA","USA","1974","North America","Income",0,"Mother_Occ","6.26421411462817","10.6185046526321"
"1017","United States of America","USA","USA","1974","North America","Income",0,"Sex","7.98655306475513","10.0975582064818"
"1018","United States of America","USA","USA","1976","North America","Income",0,"Birth_Area","12.3460843371751","13.7971672658757"
"1019","United States of America","USA","USA","1976","North America","Income",0,"Ethnicity","8.037298714788","0"
"1020","United States of America","USA","USA","1976","North America","Income",0,"Father_Edu","22.5735315287751","22.4729754168337"
"1021","United States of America","USA","USA","1976","North America","Income",0,"Father_Occ","22.2539238040376","24.1599381128533"
"1022","United States of America","USA","USA","1976","North America","Income",0,"Mother_Edu","22.5380195593598","21.5204726701015"
"1023","United States of America","USA","USA","1976","North America","Income",0,"Mother_Occ","5.93025519614819","7.9673914184067"
"1024","United States of America","USA","USA","1976","North America","Income",0,"Sex","6.32088685971625","10.3429103168833"
"1025","United States of America","USA","USA","1978","North America","Income",0,"Birth_Area","10.9083113762858","10.5576339317552"
"1026","United States of America","USA","USA","1978","North America","Income",0,"Ethnicity","7.56489716139079","3.73237912989153"
"1027","United States of America","USA","USA","1978","North America","Income",0,"Father_Edu","23.1925411321361","21.6845199112639"
"1028","United States of America","USA","USA","1978","North America","Income",0,"Father_Occ","22.8794873666965","22.7283824103725"
"1029","United States of America","USA","USA","1978","North America","Income",0,"Mother_Edu","21.4394400456743","19.344432550625"
"1030","United States of America","USA","USA","1978","North America","Income",0,"Mother_Occ","6.37529285272027","8.69932926301247"
"1031","United States of America","USA","USA","1978","North America","Income",0,"Sex","7.6400300650963","13.2533228030794"
"1032","United States of America","USA","USA","1980","North America","Income",0,"Birth_Area","12.4565417424626","11.4876915211725"
"1033","United States of America","USA","USA","1980","North America","Income",0,"Ethnicity","7.20472511192875","8.29831692534718"
"1034","United States of America","USA","USA","1980","North America","Income",0,"Father_Edu","25.4001783053269","14.277144537584"
"1035","United States of America","USA","USA","1980","North America","Income",0,"Father_Occ","21.4845539591104","16.3667347900213"
"1036","United States of America","USA","USA","1980","North America","Income",0,"Mother_Edu","22.8556034334533","19.5061191884198"
"1037","United States of America","USA","USA","1980","North America","Income",0,"Mother_Occ","5.7058659408251","15.4469151573695"
"1038","United States of America","USA","USA","1980","North America","Income",0,"Sex","4.89253150689286","14.6170778800857"
"1039","United States of America","USA","USA","1982","North America","Income",0,"Birth_Area","13.237668300667","13.3504443035979"
"1040","United States of America","USA","USA","1982","North America","Income",0,"Ethnicity","7.79021448934021","3.2139824101928"
"1041","United States of America","USA","USA","1982","North America","Income",0,"Father_Edu","22.0871718102554","21.2944119242845"
"1042","United States of America","USA","USA","1982","North America","Income",0,"Father_Occ","21.7636640168624","19.8769388828527"
"1043","United States of America","USA","USA","1982","North America","Income",0,"Mother_Edu","22.3689366625654","22.6506990790359"
"1044","United States of America","USA","USA","1982","North America","Income",0,"Mother_Occ","7.84239316569389","9.92403464948911"
"1045","United States of America","USA","USA","1982","North America","Income",0,"Sex","4.90995155461565","9.68948875054716"
"1046","United States of America","USA","USA","1984","North America","Income",0,"Birth_Area","15.3736099016852","12.6300989788428"
"1047","United States of America","USA","USA","1984","North America","Income",0,"Ethnicity","7.77804374464128","6.09931677486452"
"1048","United States of America","USA","USA","1984","North America","Income",0,"Father_Edu","20.7230164169574","20.6048258030649"
"1049","United States of America","USA","USA","1984","North America","Income",0,"Father_Occ","20.9200479644812","17.5848109110518"
"1050","United States of America","USA","USA","1984","North America","Income",0,"Mother_Edu","20.2402891255239","20.9351399318788"
"1051","United States of America","USA","USA","1984","North America","Income",0,"Mother_Occ","8.44795100622231","12.3375350361791"
"1052","United States of America","USA","USA","1984","North America","Income",0,"Sex","6.51704184048875","9.80827256411809"
"1053","United States of America","USA","USA","1986","North America","Income",0,"Birth_Area","14.7796875383561","12.7554206313351"
"1054","United States of America","USA","USA","1986","North America","Income",0,"Ethnicity","9.21078907962549","4.01126434279416"
"1055","United States of America","USA","USA","1986","North America","Income",0,"Father_Edu","23.6881051708681","22.4092662152869"
"1056","United States of America","USA","USA","1986","North America","Income",0,"Father_Occ","19.8845111255259","18.9004646472736"
"1057","United States of America","USA","USA","1986","North America","Income",0,"Mother_Edu","20.0937997930925","20.4506494670044"
"1058","United States of America","USA","USA","1986","North America","Income",0,"Mother_Occ","7.17249944767181","10.546175199623"
"1059","United States of America","USA","USA","1986","North America","Income",0,"Sex","5.17060784486013","10.9267594966827"
"1060","United States of America","USA","USA","1988","North America","Income",0,"Birth_Area","18.3023157017088","16.659152955753"
"1061","United States of America","USA","USA","1988","North America","Income",0,"Ethnicity","7.9036045259128","5.63777536062758"
"1062","United States of America","USA","USA","1988","North America","Income",0,"Father_Edu","20.7551414676026","20.0623313054383"
"1063","United States of America","USA","USA","1988","North America","Income",0,"Father_Occ","19.715270350023","15.2896811861206"
"1064","United States of America","USA","USA","1988","North America","Income",0,"Mother_Edu","21.3346116323607","16.6263512367199"
"1065","United States of America","USA","USA","1988","North America","Income",0,"Mother_Occ","7.51464510025324","13.9694119950379"
"1066","United States of America","USA","USA","1988","North America","Income",0,"Sex","4.47441122213884","11.7552959603029"
"1067","United States of America","USA","USA","1990","North America","Income",0,"Birth_Area","14.9506544438609","14.7611496948877"
"1068","United States of America","USA","USA","1990","North America","Income",0,"Ethnicity","9.21779199929918","2.59128818061333"
"1069","United States of America","USA","USA","1990","North America","Income",0,"Father_Edu","22.9479076972465","21.372271803529"
"1070","United States of America","USA","USA","1990","North America","Income",0,"Father_Occ","17.7631715992651","17.8913136320403"
"1071","United States of America","USA","USA","1990","North America","Income",0,"Mother_Edu","20.800330699989","19.8071898349527"
"1072","United States of America","USA","USA","1990","North America","Income",0,"Mother_Occ","7.69921244893718","12.9981837992501"
"1073","United States of America","USA","USA","1990","North America","Income",0,"Sex","6.62093111140205","10.5786030547269"
"1074","United States of America","USA","USA","1992","North America","Income",0,"Birth_Area","13.3809016026486","14.4882177002666"
"1075","United States of America","USA","USA","1992","North America","Income",0,"Ethnicity","8.83435015279963","6.38442141791237"
"1076","United States of America","USA","USA","1992","North America","Income",0,"Father_Edu","21.7424819676458","21.925948534756"
"1077","United States of America","USA","USA","1992","North America","Income",0,"Father_Occ","17.7329976951721","18.5956212954324"
"1078","United States of America","USA","USA","1992","North America","Income",0,"Mother_Edu","19.4553165743409","19.4495513567974"
"1079","United States of America","USA","USA","1992","North America","Income",0,"Mother_Occ","10.1399789805567","10.3466569026461"
"1080","United States of America","USA","USA","1992","North America","Income",0,"Sex","8.71397302683626","8.80958279218905"
"1081","United States of America","USA","USA","1994","North America","Income",0,"Birth_Area","12.2919819050837","12.1253882259967"
"1082","United States of America","USA","USA","1994","North America","Income",0,"Ethnicity","12.5573771006692","11.5929694545792"
"1083","United States of America","USA","USA","1994","North America","Income",0,"Father_Edu","21.4984497243628","20.1672956390494"
"1084","United States of America","USA","USA","1994","North America","Income",0,"Father_Occ","20.6931125791376","16.4483107879539"
"1085","United States of America","USA","USA","1994","North America","Income",0,"Mother_Edu","19.1556507564349","17.1952863777039"
"1086","United States of America","USA","USA","1994","North America","Income",0,"Mother_Occ","6.91086552562432","14.3901546417279"
"1087","United States of America","USA","USA","1994","North America","Income",0,"Sex","6.8925624086874","8.080594872989"
"1088","United States of America","USA","USA","1996","North America","Income",0,"Birth_Area","11.9234604738325","13.9748201926005"
"1089","United States of America","USA","USA","1996","North America","Income",0,"Ethnicity","10.0270745090956","5.29480005267596"
"1090","United States of America","USA","USA","1996","North America","Income",0,"Father_Edu","25.9159531762602","24.5392635329313"
"1091","United States of America","USA","USA","1996","North America","Income",0,"Father_Occ","17.311323401683","18.3606901192098"
"1092","United States of America","USA","USA","1996","North America","Income",0,"Mother_Edu","20.7939387481391","20.8121079108888"
"1093","United States of America","USA","USA","1996","North America","Income",0,"Mother_Occ","8.45856836069169","10.1309303900018"
"1094","United States of America","USA","USA","1996","North America","Income",0,"Sex","5.56968133029814","6.88738780169187"
"1095","United States of America","USA","USA","1998","North America","Income",0,"Birth_Area","14.6045218719901","10.5330154551851"
"1096","United States of America","USA","USA","1998","North America","Income",0,"Ethnicity","9.19445374124949","16.2311582709311"
"1097","United States of America","USA","USA","1998","North America","Income",0,"Father_Edu","22.7280772995552","18.6645826564353"
"1098","United States of America","USA","USA","1998","North America","Income",0,"Father_Occ","16.159916459578","14.3947541539201"
"1099","United States of America","USA","USA","1998","North America","Income",0,"Mother_Edu","20.9190857683388","16.1404716478688"
"1100","United States of America","USA","USA","1998","North America","Income",0,"Mother_Occ","7.58833976493593","18.3925227872485"
"1101","United States of America","USA","USA","1998","North America","Income",0,"Sex","8.80560509435255","5.64349502841101"
"1102","United States of America","USA","USA","2000","North America","Income",0,"Birth_Area","12.0476403408812","12.1058706057485"
"1103","United States of America","USA","USA","2000","North America","Income",0,"Ethnicity","8.23686578616543","9.10221433329971"
"1104","United States of America","USA","USA","2000","North America","Income",0,"Father_Edu","24.5893228198458","20.0879626888858"
"1105","United States of America","USA","USA","2000","North America","Income",0,"Father_Occ","17.5605608633701","16.5781654423504"
"1106","United States of America","USA","USA","2000","North America","Income",0,"Mother_Edu","22.0826800016328","17.2585516698112"
"1107","United States of America","USA","USA","2000","North America","Income",0,"Mother_Occ","9.49018719527192","17.4991760673278"
"1108","United States of America","USA","USA","2000","North America","Income",0,"Sex","5.99274299283278","7.36805919257654"
"1109","United States of America","USA","USA","2002","North America","Income",0,"Birth_Area","13.6578846539201","14.4471604873642"
"1110","United States of America","USA","USA","2002","North America","Income",0,"Ethnicity","8.81744990529667","15.33619090445"
"1111","United States of America","USA","USA","2002","North America","Income",0,"Father_Edu","22.6395802430324","15.8786501419939"
"1112","United States of America","USA","USA","2002","North America","Income",0,"Father_Occ","16.5006796650163","14.6656510135972"
"1113","United States of America","USA","USA","2002","North America","Income",0,"Mother_Edu","22.6549467025518","16.4663143159997"
"1114","United States of America","USA","USA","2002","North America","Income",0,"Mother_Occ","10.4232449250781","14.3642847705173"
"1115","United States of America","USA","USA","2002","North America","Income",0,"Sex","5.30621390510476","8.84174836607772"
"1116","United States of America","USA","USA","2004","North America","Income",0,"Birth_Area","14.5953774124202","11.1624871033307"
"1117","United States of America","USA","USA","2004","North America","Income",0,"Ethnicity","10.0814864418605","11.8094413053959"
"1118","United States of America","USA","USA","2004","North America","Income",0,"Father_Edu","20.9684069302069","15.9291266840637"
"1119","United States of America","USA","USA","2004","North America","Income",0,"Father_Occ","14.1082668760289","17.267652619371"
"1120","United States of America","USA","USA","2004","North America","Income",0,"Mother_Edu","20.79791824247","18.6954136170321"
"1121","United States of America","USA","USA","2004","North America","Income",0,"Mother_Occ","9.64308695910827","19.0151725904665"
"1122","United States of America","USA","USA","2004","North America","Income",0,"Sex","9.80545713790536","6.12070608034009"
"1123","United States of America","USA","USA","2006","North America","Income",0,"Birth_Area","14.3765755467535","12.5049092794118"
"1124","United States of America","USA","USA","2006","North America","Income",0,"Ethnicity","10.371108289273","19.8736485747213"
"1125","United States of America","USA","USA","2006","North America","Income",0,"Father_Edu","23.7428572055502","18.0517480682734"
"1126","United States of America","USA","USA","2006","North America","Income",0,"Father_Occ","15.5502001685106","11.3247308136966"
"1127","United States of America","USA","USA","2006","North America","Income",0,"Mother_Edu","20.4112776341108","16.982211333719"
"1128","United States of America","USA","USA","2006","North America","Income",0,"Mother_Occ","8.21315333959068","16.6576622556473"
"1129","United States of America","USA","USA","2006","North America","Income",0,"Sex","7.33482781621122","4.60508967453048"
"1130","United States of America","USA","USA","2008","North America","Income",0,"Birth_Area","16.0546286076909","12.4514633147954"
"1131","United States of America","USA","USA","2008","North America","Income",0,"Ethnicity","10.2519283552255","14.2202463424818"
"1132","United States of America","USA","USA","2008","North America","Income",0,"Father_Edu","19.0138404173528","18.7065232945225"
"1133","United States of America","USA","USA","2008","North America","Income",0,"Father_Occ","16.8646921756989","14.6624420994033"
"1134","United States of America","USA","USA","2008","North America","Income",0,"Mother_Edu","19.0138404173528","15.9247099873431"
"1135","United States of America","USA","USA","2008","North America","Income",0,"Mother_Occ","10.8140132799657","16.929700343983"
"1136","United States of America","USA","USA","2008","North America","Income",0,"Sex","7.98705674671334","7.10491461747091"
"1137","United States of America","USA","USA","2010","North America","Income",0,"Birth_Area","17.0427403234729","16.1668602487454"
"1138","United States of America","USA","USA","2010","North America","Income",0,"Ethnicity","9.92491301850685","12.1661453352522"
"1139","United States of America","USA","USA","2010","North America","Income",0,"Father_Edu","19.7630824388996","20.2474297513304"
"1140","United States of America","USA","USA","2010","North America","Income",0,"Father_Occ","15.566212449613","14.8412740698236"
"1141","United States of America","USA","USA","2010","North America","Income",0,"Mother_Edu","19.3538274303841","18.0753849280366"
"1142","United States of America","USA","USA","2010","North America","Income",0,"Mother_Occ","11.5057607964982","13.4118769250824"
"1143","United States of America","USA","USA","2010","North America","Income",0,"Sex","6.84346354262527","5.09102874172932"
"1144","United States of America","USA","USA","2012","North America","Income",0,"Birth_Area","15.2371950106694","14.3919649947198"
"1145","United States of America","USA","USA","2012","North America","Income",0,"Ethnicity","11.4069035707454","16.0886560041517"
"1146","United States of America","USA","USA","2012","North America","Income",0,"Father_Edu","22.0448789868904","17.6691353006088"
"1147","United States of America","USA","USA","2012","North America","Income",0,"Father_Occ","15.4698038025676","16.7549364918738"
"1148","United States of America","USA","USA","2012","North America","Income",0,"Mother_Edu","19.0209646922136","13.9968451706055"
"1149","United States of America","USA","USA","2012","North America","Income",0,"Mother_Occ","9.95697543457989","12.4628505593383"
"1150","United States of America","USA","USA","2012","North America","Income",0,"Sex","6.86327850233363","8.63561147870204"
"1151","United States of America","USA","USA","2014","North America","Income",1,"Birth_Area","15.2099619309214","14.6874475147706"
"1152","United States of America","USA","USA","2014","North America","Income",1,"Ethnicity","11.7231331890157","11.4426791262386"
"1153","United States of America","USA","USA","2014","North America","Income",1,"Father_Edu","21.1270046444584","19.9752182220079"
"1154","United States of America","USA","USA","2014","North America","Income",1,"Father_Occ","18.6642794491264","18.220639760061"
"1155","United States of America","USA","USA","2014","North America","Income",1,"Mother_Edu","18.5667457780241","17.243203356602"
"1156","United States of America","USA","USA","2014","North America","Income",1,"Mother_Occ","8.585800101893","12.043562161152"
"1157","United States of America","USA","USA","2014","North America","Income",1,"Sex","6.12307490656096","6.38724985916778"
"1158","Uzbekistan","UZB","UZB","2016","Asia + Oceania","Income",1,"Birth_Area","8.74008616487954","14.8036275521935"
"1159","Uzbekistan","UZB","UZB","2016","Asia + Oceania","Income",1,"Ethnicity","9.08495096601573","18.2338069555676"
"1160","Uzbekistan","UZB","UZB","2016","Asia + Oceania","Income",1,"Father_Edu","16.159100732912","11.4780267891662"
"1161","Uzbekistan","UZB","UZB","2016","Asia + Oceania","Income",1,"Father_Occ","31.8283424665872","18.6242338795289"
"1162","Uzbekistan","UZB","UZB","2016","Asia + Oceania","Income",1,"Mother_Edu","16.7250327142637","18.1222564058644"
"1163","Uzbekistan","UZB","UZB","2016","Asia + Oceania","Income",1,"Mother_Occ","14.3728779167707","14.2877062598161"
"1164","Uzbekistan","UZB","UZB","2016","Asia + Oceania","Income",1,"Sex","3.08960903857116","4.45034215786329"
"1165","South Africa","ZAF","ZAF","2008","Africa","Income",0,"Ethnicity","22.0598896658139","29.4407471314604"
"1166","South Africa","ZAF","ZAF","2008","Africa","Income",0,"Father_Edu","22.5968627086662","18.650010738832"
"1167","South Africa","ZAF","ZAF","2008","Africa","Income",0,"Father_Occ","18.9118852020926","14.5794185907207"
"1168","South Africa","ZAF","ZAF","2008","Africa","Income",0,"Mother_Edu","21.1369672484117","18.7966987441693"
"1169","South Africa","ZAF","ZAF","2008","Africa","Income",0,"Mother_Occ","10.6592807497571","17.7515467061408"
"1170","South Africa","ZAF","ZAF","2008","Africa","Income",0,"Sex","4.63511442525841","0.781578088676648"
"1171","South Africa","ZAF","ZAF","2012","Africa","Income",0,"Ethnicity","25.1653882268229","29.0538500092863"
"1172","South Africa","ZAF","ZAF","2012","Africa","Income",0,"Father_Edu","22.8376890588717","19.2995633130552"
"1173","South Africa","ZAF","ZAF","2012","Africa","Income",0,"Father_Occ","15.0724546963335","12.1351736948672"
"1174","South Africa","ZAF","ZAF","2012","Africa","Income",0,"Mother_Edu","22.0368407920846","19.5972526323705"
"1175","South Africa","ZAF","ZAF","2012","Africa","Income",0,"Mother_Occ","9.20829939700961","12.6015536284612"
"1176","South Africa","ZAF","ZAF","2012","Africa","Income",0,"Sex","5.67932782887787","7.31260672195951"
"1177","South Africa","ZAF","ZAF","2015","Africa","Income",0,"Ethnicity","19.7848258753216","35.461549233575"
"1178","South Africa","ZAF","ZAF","2015","Africa","Income",0,"Father_Edu","22.4796865892533","17.638815764955"
"1179","South Africa","ZAF","ZAF","2015","Africa","Income",0,"Father_Occ","17.4084868009838","11.3998829976265"
"1180","South Africa","ZAF","ZAF","2015","Africa","Income",0,"Mother_Edu","23.6531873667041","17.6271031252166"
"1181","South Africa","ZAF","ZAF","2015","Africa","Income",0,"Mother_Occ","12.1864083413277","13.8361120632166"
"1182","South Africa","ZAF","ZAF","2015","Africa","Income",0,"Sex","4.48740502640947","4.03653681541014"
"1183","South Africa","ZAF","ZAF","2017","Africa","Income",1,"Ethnicity","20.7286543589141","32.4140576779833"
"1184","South Africa","ZAF","ZAF","2017","Africa","Income",1,"Father_Edu","22.9917103894044","16.4262240107528"
"1185","South Africa","ZAF","ZAF","2017","Africa","Income",1,"Father_Occ","16.0370405850517","13.7781488936218"
"1186","South Africa","ZAF","ZAF","2017","Africa","Income",1,"Mother_Edu","23.1716035555802","16.0703688800004"
"1187","South Africa","ZAF","ZAF","2017","Africa","Income",1,"Mother_Occ","12.673038377566","16.057545271685"
"1188","South Africa","ZAF","ZAF","2017","Africa","Income",1,"Sex","4.3979527334836","5.25365526595671"
